{"type":"FeatureCollection","properties":{"source":"USGS 2023 National Seismic Hazard Model, sampled via the ASCE 7-22 design-value web service","metric":"Ss \u2014 Mapped Risk-Targeted MCEr spectral response acceleration at 0.2s, Site Class B/C, 2% probability of exceedance in 50 years","disclaimer":"Long-term shaking hazard \u2014 not a prediction."},"features":[{"type":"Feature","properties":{"ss":0.046,"category":"Low","color":"#2e7d32"},"geometry":{"type":"Polygon","coordinates":[[[-98.0,25.0],[-96.0,25.0],[-96.0,27.0],[-98.0,27.0],[-98.0,25.0]]]}},{"type":"Feature","properties":{"ss":0.053,"category":"Low","color":"#2e7d32"},"geometry":{"type":"Polygon","coordinates":[[[-82.0,25.0],[-80.0,25.0],[-80.0,27.0],[-82.0,27.0],[-82.0,25.0]]]}},{"type":"Feature","properties":{"ss":0.055,"category":"Low","color":"#2e7d32"},"geometry":{"type":"Polygon","coordinates":[[[-100.0,27.0],[-98.0,27.0],[-98.0,29.0],[-100.0,29.0],[-100.0,27.0]]]}},{"type":"Feature","properties":{"ss":0.058,"category":"Low","color":"#2e7d32"},"geometry":{"type":"Polygon","coordinates":[[[-98.0,27.0],[-96.0,27.0],[-96.0,29.0],[-98.0,29.0],[-98.0,27.0]]]}},{"type":"Feature","properties":{"ss":0.062,"category":"Low","color":"#2e7d32"},"geometry":{"type":"Polygon","coordinates":[[[-84.0,27.0],[-82.0,27.0],[-82.0,29.0],[-84.0,29.0],[-84.0,27.0]]]}},{"type":"Feature","properties":{"ss":0.073,"category":"Low","color":"#2e7d32"},"geometry":{"type":"Polygon","coordinates":[[[-82.0,27.0],[-80.0,27.0],[-80.0,29.0],[-82.0,29.0],[-82.0,27.0]]]}},{"type":"Feature","properties":{"ss":0.37,"category":"Moderate","color":"#b58900"},"geometry":{"type":"Polygon","coordinates":[[[-106.0,29.0],[-104.0,29.0],[-104.0,31.0],[-106.0,31.0],[-106.0,29.0]]]}},{"type":"Feature","properties":{"ss":0.28,"category":"Moderate","color":"#b58900"},"geometry":{"type":"Polygon","coordinates":[[[-104.0,29.0],[-102.0,29.0],[-102.0,31.0],[-104.0,31.0],[-104.0,29.0]]]}},{"type":"Feature","properties":{"ss":0.062,"category":"Low","color":"#2e7d32"},"geometry":{"type":"Polygon","coordinates":[[[-102.0,29.0],[-100.0,29.0],[-100.0,31.0],[-102.0,31.0],[-102.0,29.0]]]}},{"type":"Feature","properties":{"ss":0.054,"category":"Low","color":"#2e7d32"},"geometry":{"type":"Polygon","coordinates":[[[-100.0,29.0],[-98.0,29.0],[-98.0,31.0],[-100.0,31.0],[-100.0,29.0]]]}},{"type":"Feature","properties":{"ss":0.072,"category":"Low","color":"#2e7d32"},"geometry":{"type":"Polygon","coordinates":[[[-98.0,29.0],[-96.0,29.0],[-96.0,31.0],[-98.0,31.0],[-98.0,29.0]]]}},{"type":"Feature","properties":{"ss":0.087,"category":"Low","color":"#2e7d32"},"geometry":{"type":"Polygon","coordinates":[[[-96.0,29.0],[-94.0,29.0],[-94.0,31.0],[-96.0,31.0],[-96.0,29.0]]]}},{"type":"Feature","properties":{"ss":0.1,"category":"Low","color":"#2e7d32"},"geometry":{"type":"Polygon","coordinates":[[[-94.0,29.0],[-92.0,29.0],[-92.0,31.0],[-94.0,31.0],[-94.0,29.0]]]}},{"type":"Feature","properties":{"ss":0.11,"category":"Low","color":"#2e7d32"},"geometry":{"type":"Polygon","coordinates":[[[-92.0,29.0],[-90.0,29.0],[-90.0,31.0],[-92.0,31.0],[-92.0,29.0]]]}},{"type":"Feature","properties":{"ss":0.11,"category":"Low","color":"#2e7d32"},"geometry":{"type":"Polygon","coordinates":[[[-90.0,29.0],[-88.0,29.0],[-88.0,31.0],[-90.0,31.0],[-90.0,29.0]]]}},{"type":"Feature","properties":{"ss":0.092,"category":"Low","color":"#2e7d32"},"geometry":{"type":"Polygon","coordinates":[[[-88.0,29.0],[-86.0,29.0],[-86.0,31.0],[-88.0,31.0],[-88.0,29.0]]]}},{"type":"Feature","properties":{"ss":0.089,"category":"Low","color":"#2e7d32"},"geometry":{"type":"Polygon","coordinates":[[[-86.0,29.0],[-84.0,29.0],[-84.0,31.0],[-86.0,31.0],[-86.0,29.0]]]}},{"type":"Feature","properties":{"ss":0.11,"category":"Low","color":"#2e7d32"},"geometry":{"type":"Polygon","coordinates":[[[-84.0,29.0],[-82.0,29.0],[-82.0,31.0],[-84.0,31.0],[-84.0,29.0]]]}},{"type":"Feature","properties":{"ss":0.14,"category":"Low","color":"#2e7d32"},"geometry":{"type":"Polygon","coordinates":[[[-82.0,29.0],[-80.0,29.0],[-80.0,31.0],[-82.0,31.0],[-82.0,29.0]]]}},{"type":"Feature","properties":{"ss":0.29,"category":"Moderate","color":"#b58900"},"geometry":{"type":"Polygon","coordinates":[[[-114.0,31.0],[-112.0,31.0],[-112.0,33.0],[-114.0,33.0],[-114.0,31.0]]]}},{"type":"Feature","properties":{"ss":0.28,"category":"Moderate","color":"#b58900"},"geometry":{"type":"Polygon","coordinates":[[[-112.0,31.0],[-110.0,31.0],[-110.0,33.0],[-112.0,33.0],[-112.0,31.0]]]}},{"type":"Feature","properties":{"ss":0.28,"category":"Moderate","color":"#b58900"},"geometry":{"type":"Polygon","coordinates":[[[-110.0,31.0],[-108.0,31.0],[-108.0,33.0],[-110.0,33.0],[-110.0,31.0]]]}},{"type":"Feature","properties":{"ss":0.27,"category":"Moderate","color":"#b58900"},"geometry":{"type":"Polygon","coordinates":[[[-108.0,31.0],[-106.0,31.0],[-106.0,33.0],[-108.0,33.0],[-108.0,31.0]]]}},{"type":"Feature","properties":{"ss":0.26,"category":"Moderate","color":"#b58900"},"geometry":{"type":"Polygon","coordinates":[[[-106.0,31.0],[-104.0,31.0],[-104.0,33.0],[-106.0,33.0],[-106.0,31.0]]]}},{"type":"Feature","properties":{"ss":0.11,"category":"Low","color":"#2e7d32"},"geometry":{"type":"Polygon","coordinates":[[[-104.0,31.0],[-102.0,31.0],[-102.0,33.0],[-104.0,33.0],[-104.0,31.0]]]}},{"type":"Feature","properties":{"ss":0.077,"category":"Low","color":"#2e7d32"},"geometry":{"type":"Polygon","coordinates":[[[-102.0,31.0],[-100.0,31.0],[-100.0,33.0],[-102.0,33.0],[-102.0,31.0]]]}},{"type":"Feature","properties":{"ss":0.077,"category":"Low","color":"#2e7d32"},"geometry":{"type":"Polygon","coordinates":[[[-100.0,31.0],[-98.0,31.0],[-98.0,33.0],[-100.0,33.0],[-100.0,31.0]]]}},{"type":"Feature","properties":{"ss":0.097,"category":"Low","color":"#2e7d32"},"geometry":{"type":"Polygon","coordinates":[[[-98.0,31.0],[-96.0,31.0],[-96.0,33.0],[-98.0,33.0],[-98.0,31.0]]]}},{"type":"Feature","properties":{"ss":0.13,"category":"Low","color":"#2e7d32"},"geometry":{"type":"Polygon","coordinates":[[[-96.0,31.0],[-94.0,31.0],[-94.0,33.0],[-96.0,33.0],[-96.0,31.0]]]}},{"type":"Feature","properties":{"ss":0.16,"category":"Low","color":"#2e7d32"},"geometry":{"type":"Polygon","coordinates":[[[-94.0,31.0],[-92.0,31.0],[-92.0,33.0],[-94.0,33.0],[-94.0,31.0]]]}},{"type":"Feature","properties":{"ss":0.2,"category":"Low","color":"#2e7d32"},"geometry":{"type":"Polygon","coordinates":[[[-92.0,31.0],[-90.0,31.0],[-90.0,33.0],[-92.0,33.0],[-92.0,31.0]]]}},{"type":"Feature","properties":{"ss":0.21,"category":"Low","color":"#2e7d32"},"geometry":{"type":"Polygon","coordinates":[[[-90.0,31.0],[-88.0,31.0],[-88.0,33.0],[-90.0,33.0],[-90.0,31.0]]]}},{"type":"Feature","properties":{"ss":0.18,"category":"Low","color":"#2e7d32"},"geometry":{"type":"Polygon","coordinates":[[[-88.0,31.0],[-86.0,31.0],[-86.0,33.0],[-88.0,33.0],[-88.0,31.0]]]}},{"type":"Feature","properties":{"ss":0.15,"category":"Low","color":"#2e7d32"},"geometry":{"type":"Polygon","coordinates":[[[-86.0,31.0],[-84.0,31.0],[-84.0,33.0],[-86.0,33.0],[-86.0,31.0]]]}},{"type":"Feature","properties":{"ss":0.21,"category":"Low","color":"#2e7d32"},"geometry":{"type":"Polygon","coordinates":[[[-84.0,31.0],[-82.0,31.0],[-82.0,33.0],[-84.0,33.0],[-84.0,31.0]]]}},{"type":"Feature","properties":{"ss":0.45,"category":"Moderate","color":"#b58900"},"geometry":{"type":"Polygon","coordinates":[[[-82.0,31.0],[-80.0,31.0],[-80.0,33.0],[-82.0,33.0],[-82.0,31.0]]]}},{"type":"Feature","properties":{"ss":1.59,"category":"Very High","color":"#c1272d"},"geometry":{"type":"Polygon","coordinates":[[[-120.0,33.0],[-118.0,33.0],[-118.0,35.0],[-120.0,35.0],[-120.0,33.0]]]}},{"type":"Feature","properties":{"ss":2.7,"category":"Very High","color":"#c1272d"},"geometry":{"type":"Polygon","coordinates":[[[-118.0,33.0],[-116.0,33.0],[-116.0,35.0],[-118.0,35.0],[-118.0,33.0]]]}},{"type":"Feature","properties":{"ss":0.47,"category":"Moderate","color":"#b58900"},"geometry":{"type":"Polygon","coordinates":[[[-116.0,33.0],[-114.0,33.0],[-114.0,35.0],[-116.0,35.0],[-116.0,33.0]]]}},{"type":"Feature","properties":{"ss":0.19,"category":"Low","color":"#2e7d32"},"geometry":{"type":"Polygon","coordinates":[[[-114.0,33.0],[-112.0,33.0],[-112.0,35.0],[-114.0,35.0],[-114.0,33.0]]]}},{"type":"Feature","properties":{"ss":0.29,"category":"Moderate","color":"#b58900"},"geometry":{"type":"Polygon","coordinates":[[[-112.0,33.0],[-110.0,33.0],[-110.0,35.0],[-112.0,35.0],[-112.0,33.0]]]}},{"type":"Feature","properties":{"ss":0.27,"category":"Moderate","color":"#b58900"},"geometry":{"type":"Polygon","coordinates":[[[-110.0,33.0],[-108.0,33.0],[-108.0,35.0],[-110.0,35.0],[-110.0,33.0]]]}},{"type":"Feature","properties":{"ss":0.46,"category":"Moderate","color":"#b58900"},"geometry":{"type":"Polygon","coordinates":[[[-108.0,33.0],[-106.0,33.0],[-106.0,35.0],[-108.0,35.0],[-108.0,33.0]]]}},{"type":"Feature","properties":{"ss":0.1,"category":"Low","color":"#2e7d32"},"geometry":{"type":"Polygon","coordinates":[[[-106.0,33.0],[-104.0,33.0],[-104.0,35.0],[-106.0,35.0],[-106.0,33.0]]]}},{"type":"Feature","properties":{"ss":0.085,"category":"Low","color":"#2e7d32"},"geometry":{"type":"Polygon","coordinates":[[[-104.0,33.0],[-102.0,33.0],[-102.0,35.0],[-104.0,35.0],[-104.0,33.0]]]}},{"type":"Feature","properties":{"ss":0.11,"category":"Low","color":"#2e7d32"},"geometry":{"type":"Polygon","coordinates":[[[-102.0,33.0],[-100.0,33.0],[-100.0,35.0],[-102.0,35.0],[-102.0,33.0]]]}},{"type":"Feature","properties":{"ss":0.18,"category":"Low","color":"#2e7d32"},"geometry":{"type":"Polygon","coordinates":[[[-100.0,33.0],[-98.0,33.0],[-98.0,35.0],[-100.0,35.0],[-100.0,33.0]]]}},{"type":"Feature","properties":{"ss":0.23,"category":"Low","color":"#2e7d32"},"geometry":{"type":"Polygon","coordinates":[[[-98.0,33.0],[-96.0,33.0],[-96.0,35.0],[-98.0,35.0],[-98.0,33.0]]]}},{"type":"Feature","properties":{"ss":0.2,"category":"Low","color":"#2e7d32"},"geometry":{"type":"Polygon","coordinates":[[[-96.0,33.0],[-94.0,33.0],[-94.0,35.0],[-96.0,35.0],[-96.0,33.0]]]}},{"type":"Feature","properties":{"ss":0.31,"category":"Moderate","color":"#b58900"},"geometry":{"type":"Polygon","coordinates":[[[-94.0,33.0],[-92.0,33.0],[-92.0,35.0],[-94.0,35.0],[-94.0,33.0]]]}},{"type":"Feature","properties":{"ss":0.54,"category":"High","color":"#d2691e"},"geometry":{"type":"Polygon","coordinates":[[[-92.0,33.0],[-90.0,33.0],[-90.0,35.0],[-92.0,35.0],[-92.0,33.0]]]}},{"type":"Feature","properties":{"ss":0.47,"category":"Moderate","color":"#b58900"},"geometry":{"type":"Polygon","coordinates":[[[-90.0,33.0],[-88.0,33.0],[-88.0,35.0],[-90.0,35.0],[-90.0,33.0]]]}},{"type":"Feature","properties":{"ss":0.36,"category":"Moderate","color":"#b58900"},"geometry":{"type":"Polygon","coordinates":[[[-88.0,33.0],[-86.0,33.0],[-86.0,35.0],[-88.0,35.0],[-88.0,33.0]]]}},{"type":"Feature","properties":{"ss":0.31,"category":"Moderate","color":"#b58900"},"geometry":{"type":"Polygon","coordinates":[[[-86.0,33.0],[-84.0,33.0],[-84.0,35.0],[-86.0,35.0],[-86.0,33.0]]]}},{"type":"Feature","properties":{"ss":0.31,"category":"Moderate","color":"#b58900"},"geometry":{"type":"Polygon","coordinates":[[[-84.0,33.0],[-82.0,33.0],[-82.0,35.0],[-84.0,35.0],[-84.0,33.0]]]}},{"type":"Feature","properties":{"ss":0.45,"category":"Moderate","color":"#b58900"},"geometry":{"type":"Polygon","coordinates":[[[-82.0,33.0],[-80.0,33.0],[-80.0,35.0],[-82.0,35.0],[-82.0,33.0]]]}},{"type":"Feature","properties":{"ss":0.41,"category":"Moderate","color":"#b58900"},"geometry":{"type":"Polygon","coordinates":[[[-80.0,33.0],[-78.0,33.0],[-78.0,35.0],[-80.0,35.0],[-80.0,33.0]]]}},{"type":"Feature","properties":{"ss":1.4,"category":"Very High","color":"#c1272d"},"geometry":{"type":"Polygon","coordinates":[[[-122.0,35.0],[-120.0,35.0],[-120.0,37.0],[-122.0,37.0],[-122.0,35.0]]]}},{"type":"Feature","properties":{"ss":0.72,"category":"High","color":"#d2691e"},"geometry":{"type":"Polygon","coordinates":[[[-120.0,35.0],[-118.0,35.0],[-118.0,37.0],[-120.0,37.0],[-120.0,35.0]]]}},{"type":"Feature","properties":{"ss":1.15,"category":"Very High","color":"#c1272d"},"geometry":{"type":"Polygon","coordinates":[[[-118.0,35.0],[-116.0,35.0],[-116.0,37.0],[-118.0,37.0],[-118.0,35.0]]]}},{"type":"Feature","properties":{"ss":0.51,"category":"High","color":"#d2691e"},"geometry":{"type":"Polygon","coordinates":[[[-116.0,35.0],[-114.0,35.0],[-114.0,37.0],[-116.0,37.0],[-116.0,35.0]]]}},{"type":"Feature","properties":{"ss":0.37,"category":"Moderate","color":"#b58900"},"geometry":{"type":"Polygon","coordinates":[[[-114.0,35.0],[-112.0,35.0],[-112.0,37.0],[-114.0,37.0],[-114.0,35.0]]]}},{"type":"Feature","properties":{"ss":0.3,"category":"Moderate","color":"#b58900"},"geometry":{"type":"Polygon","coordinates":[[[-112.0,35.0],[-110.0,35.0],[-110.0,37.0],[-112.0,37.0],[-112.0,35.0]]]}},{"type":"Feature","properties":{"ss":0.13,"category":"Low","color":"#2e7d32"},"geometry":{"type":"Polygon","coordinates":[[[-110.0,35.0],[-108.0,35.0],[-108.0,37.0],[-110.0,37.0],[-110.0,35.0]]]}},{"type":"Feature","properties":{"ss":0.28,"category":"Moderate","color":"#b58900"},"geometry":{"type":"Polygon","coordinates":[[[-108.0,35.0],[-106.0,35.0],[-106.0,37.0],[-108.0,37.0],[-108.0,35.0]]]}},{"type":"Feature","properties":{"ss":0.2,"category":"Low","color":"#2e7d32"},"geometry":{"type":"Polygon","coordinates":[[[-106.0,35.0],[-104.0,35.0],[-104.0,37.0],[-106.0,37.0],[-106.0,35.0]]]}},{"type":"Feature","properties":{"ss":0.15,"category":"Low","color":"#2e7d32"},"geometry":{"type":"Polygon","coordinates":[[[-104.0,35.0],[-102.0,35.0],[-102.0,37.0],[-104.0,37.0],[-104.0,35.0]]]}},{"type":"Feature","properties":{"ss":0.17,"category":"Low","color":"#2e7d32"},"geometry":{"type":"Polygon","coordinates":[[[-102.0,35.0],[-100.0,35.0],[-100.0,37.0],[-102.0,37.0],[-102.0,35.0]]]}},{"type":"Feature","properties":{"ss":0.2,"category":"Low","color":"#2e7d32"},"geometry":{"type":"Polygon","coordinates":[[[-100.0,35.0],[-98.0,35.0],[-98.0,37.0],[-100.0,37.0],[-100.0,35.0]]]}},{"type":"Feature","properties":{"ss":0.19,"category":"Low","color":"#2e7d32"},"geometry":{"type":"Polygon","coordinates":[[[-98.0,35.0],[-96.0,35.0],[-96.0,37.0],[-98.0,37.0],[-98.0,35.0]]]}},{"type":"Feature","properties":{"ss":0.21,"category":"Low","color":"#2e7d32"},"geometry":{"type":"Polygon","coordinates":[[[-96.0,35.0],[-94.0,35.0],[-94.0,37.0],[-96.0,37.0],[-96.0,35.0]]]}},{"type":"Feature","properties":{"ss":0.43,"category":"Moderate","color":"#b58900"},"geometry":{"type":"Polygon","coordinates":[[[-94.0,35.0],[-92.0,35.0],[-92.0,37.0],[-94.0,37.0],[-94.0,35.0]]]}},{"type":"Feature","properties":{"ss":1.08,"category":"Very High","color":"#c1272d"},"geometry":{"type":"Polygon","coordinates":[[[-92.0,35.0],[-90.0,35.0],[-90.0,37.0],[-92.0,37.0],[-92.0,35.0]]]}},{"type":"Feature","properties":{"ss":1.54,"category":"Very High","color":"#c1272d"},"geometry":{"type":"Polygon","coordinates":[[[-90.0,35.0],[-88.0,35.0],[-88.0,37.0],[-90.0,37.0],[-90.0,35.0]]]}},{"type":"Feature","properties":{"ss":0.5,"category":"High","color":"#d2691e"},"geometry":{"type":"Polygon","coordinates":[[[-88.0,35.0],[-86.0,35.0],[-86.0,37.0],[-88.0,37.0],[-88.0,35.0]]]}},{"type":"Feature","properties":{"ss":0.39,"category":"Moderate","color":"#b58900"},"geometry":{"type":"Polygon","coordinates":[[[-86.0,35.0],[-84.0,35.0],[-84.0,37.0],[-86.0,37.0],[-86.0,35.0]]]}},{"type":"Feature","properties":{"ss":0.41,"category":"Moderate","color":"#b58900"},"geometry":{"type":"Polygon","coordinates":[[[-84.0,35.0],[-82.0,35.0],[-82.0,37.0],[-84.0,37.0],[-84.0,35.0]]]}},{"type":"Feature","properties":{"ss":0.25,"category":"Moderate","color":"#b58900"},"geometry":{"type":"Polygon","coordinates":[[[-82.0,35.0],[-80.0,35.0],[-80.0,37.0],[-82.0,37.0],[-82.0,35.0]]]}},{"type":"Feature","properties":{"ss":0.18,"category":"Low","color":"#2e7d32"},"geometry":{"type":"Polygon","coordinates":[[[-80.0,35.0],[-78.0,35.0],[-78.0,37.0],[-80.0,37.0],[-80.0,35.0]]]}},{"type":"Feature","properties":{"ss":0.13,"category":"Low","color":"#2e7d32"},"geometry":{"type":"Polygon","coordinates":[[[-78.0,35.0],[-76.0,35.0],[-76.0,37.0],[-78.0,37.0],[-78.0,35.0]]]}},{"type":"Feature","properties":{"ss":1.48,"category":"Very High","color":"#c1272d"},"geometry":{"type":"Polygon","coordinates":[[[-124.0,37.0],[-122.0,37.0],[-122.0,39.0],[-124.0,39.0],[-124.0,37.0]]]}},{"type":"Feature","properties":{"ss":0.59,"category":"High","color":"#d2691e"},"geometry":{"type":"Polygon","coordinates":[[[-122.0,37.0],[-120.0,37.0],[-120.0,39.0],[-122.0,39.0],[-122.0,37.0]]]}},{"type":"Feature","properties":{"ss":1.83,"category":"Very High","color":"#c1272d"},"geometry":{"type":"Polygon","coordinates":[[[-120.0,37.0],[-118.0,37.0],[-118.0,39.0],[-120.0,39.0],[-120.0,37.0]]]}},{"type":"Feature","properties":{"ss":0.53,"category":"High","color":"#d2691e"},"geometry":{"type":"Polygon","coordinates":[[[-118.0,37.0],[-116.0,37.0],[-116.0,39.0],[-118.0,39.0],[-118.0,37.0]]]}},{"type":"Feature","properties":{"ss":0.63,"category":"High","color":"#d2691e"},"geometry":{"type":"Polygon","coordinates":[[[-116.0,37.0],[-114.0,37.0],[-114.0,39.0],[-116.0,39.0],[-116.0,37.0]]]}},{"type":"Feature","properties":{"ss":0.62,"category":"High","color":"#d2691e"},"geometry":{"type":"Polygon","coordinates":[[[-114.0,37.0],[-112.0,37.0],[-112.0,39.0],[-114.0,39.0],[-114.0,37.0]]]}},{"type":"Feature","properties":{"ss":0.27,"category":"Moderate","color":"#b58900"},"geometry":{"type":"Polygon","coordinates":[[[-112.0,37.0],[-110.0,37.0],[-110.0,39.0],[-112.0,39.0],[-112.0,37.0]]]}},{"type":"Feature","properties":{"ss":0.17,"category":"Low","color":"#2e7d32"},"geometry":{"type":"Polygon","coordinates":[[[-110.0,37.0],[-108.0,37.0],[-108.0,39.0],[-110.0,39.0],[-110.0,37.0]]]}},{"type":"Feature","properties":{"ss":0.32,"category":"Moderate","color":"#b58900"},"geometry":{"type":"Polygon","coordinates":[[[-108.0,37.0],[-106.0,37.0],[-106.0,39.0],[-108.0,39.0],[-108.0,37.0]]]}},{"type":"Feature","properties":{"ss":0.22,"category":"Low","color":"#2e7d32"},"geometry":{"type":"Polygon","coordinates":[[[-106.0,37.0],[-104.0,37.0],[-104.0,39.0],[-106.0,39.0],[-106.0,37.0]]]}},{"type":"Feature","properties":{"ss":0.13,"category":"Low","color":"#2e7d32"},"geometry":{"type":"Polygon","coordinates":[[[-104.0,37.0],[-102.0,37.0],[-102.0,39.0],[-104.0,39.0],[-104.0,37.0]]]}},{"type":"Feature","properties":{"ss":0.1,"category":"Low","color":"#2e7d32"},"geometry":{"type":"Polygon","coordinates":[[[-102.0,37.0],[-100.0,37.0],[-100.0,39.0],[-102.0,39.0],[-102.0,37.0]]]}},{"type":"Feature","properties":{"ss":0.11,"category":"Low","color":"#2e7d32"},"geometry":{"type":"Polygon","coordinates":[[[-100.0,37.0],[-98.0,37.0],[-98.0,39.0],[-100.0,39.0],[-100.0,37.0]]]}},{"type":"Feature","properties":{"ss":0.11,"category":"Low","color":"#2e7d32"},"geometry":{"type":"Polygon","coordinates":[[[-98.0,37.0],[-96.0,37.0],[-96.0,39.0],[-98.0,39.0],[-98.0,37.0]]]}},{"type":"Feature","properties":{"ss":0.16,"category":"Low","color":"#2e7d32"},"geometry":{"type":"Polygon","coordinates":[[[-96.0,37.0],[-94.0,37.0],[-94.0,39.0],[-96.0,39.0],[-96.0,37.0]]]}},{"type":"Feature","properties":{"ss":0.29,"category":"Moderate","color":"#b58900"},"geometry":{"type":"Polygon","coordinates":[[[-94.0,37.0],[-92.0,37.0],[-92.0,39.0],[-94.0,39.0],[-94.0,37.0]]]}},{"type":"Feature","properties":{"ss":0.61,"category":"High","color":"#d2691e"},"geometry":{"type":"Polygon","coordinates":[[[-92.0,37.0],[-90.0,37.0],[-90.0,39.0],[-92.0,39.0],[-92.0,37.0]]]}},{"type":"Feature","properties":{"ss":0.89,"category":"High","color":"#d2691e"},"geometry":{"type":"Polygon","coordinates":[[[-90.0,37.0],[-88.0,37.0],[-88.0,39.0],[-90.0,39.0],[-90.0,37.0]]]}},{"type":"Feature","properties":{"ss":0.52,"category":"High","color":"#d2691e"},"geometry":{"type":"Polygon","coordinates":[[[-88.0,37.0],[-86.0,37.0],[-86.0,39.0],[-88.0,39.0],[-88.0,37.0]]]}},{"type":"Feature","properties":{"ss":0.26,"category":"Moderate","color":"#b58900"},"geometry":{"type":"Polygon","coordinates":[[[-86.0,37.0],[-84.0,37.0],[-84.0,39.0],[-86.0,39.0],[-86.0,37.0]]]}},{"type":"Feature","properties":{"ss":0.22,"category":"Low","color":"#2e7d32"},"geometry":{"type":"Polygon","coordinates":[[[-84.0,37.0],[-82.0,37.0],[-82.0,39.0],[-84.0,39.0],[-84.0,37.0]]]}},{"type":"Feature","properties":{"ss":0.22,"category":"Low","color":"#2e7d32"},"geometry":{"type":"Polygon","coordinates":[[[-82.0,37.0],[-80.0,37.0],[-80.0,39.0],[-82.0,39.0],[-82.0,37.0]]]}},{"type":"Feature","properties":{"ss":0.18,"category":"Low","color":"#2e7d32"},"geometry":{"type":"Polygon","coordinates":[[[-80.0,37.0],[-78.0,37.0],[-78.0,39.0],[-80.0,39.0],[-80.0,37.0]]]}},{"type":"Feature","properties":{"ss":0.18,"category":"Low","color":"#2e7d32"},"geometry":{"type":"Polygon","coordinates":[[[-78.0,37.0],[-76.0,37.0],[-76.0,39.0],[-78.0,39.0],[-78.0,37.0]]]}},{"type":"Feature","properties":{"ss":0.094,"category":"Low","color":"#2e7d32"},"geometry":{"type":"Polygon","coordinates":[[[-76.0,37.0],[-74.0,37.0],[-74.0,39.0],[-76.0,39.0],[-76.0,37.0]]]}},{"type":"Feature","properties":{"ss":1.77,"category":"Very High","color":"#c1272d"},"geometry":{"type":"Polygon","coordinates":[[[-126.0,39.0],[-124.0,39.0],[-124.0,41.0],[-126.0,41.0],[-126.0,39.0]]]}},{"type":"Feature","properties":{"ss":1.31,"category":"Very High","color":"#c1272d"},"geometry":{"type":"Polygon","coordinates":[[[-124.0,39.0],[-122.0,39.0],[-122.0,41.0],[-124.0,41.0],[-124.0,39.0]]]}},{"type":"Feature","properties":{"ss":1.34,"category":"Very High","color":"#c1272d"},"geometry":{"type":"Polygon","coordinates":[[[-122.0,39.0],[-120.0,39.0],[-120.0,41.0],[-122.0,41.0],[-122.0,39.0]]]}},{"type":"Feature","properties":{"ss":0.77,"category":"High","color":"#d2691e"},"geometry":{"type":"Polygon","coordinates":[[[-120.0,39.0],[-118.0,39.0],[-118.0,41.0],[-120.0,41.0],[-120.0,39.0]]]}},{"type":"Feature","properties":{"ss":0.71,"category":"High","color":"#d2691e"},"geometry":{"type":"Polygon","coordinates":[[[-118.0,39.0],[-116.0,39.0],[-116.0,41.0],[-118.0,41.0],[-118.0,39.0]]]}},{"type":"Feature","properties":{"ss":0.34,"category":"Moderate","color":"#b58900"},"geometry":{"type":"Polygon","coordinates":[[[-116.0,39.0],[-114.0,39.0],[-114.0,41.0],[-116.0,41.0],[-116.0,39.0]]]}},{"type":"Feature","properties":{"ss":0.34,"category":"Moderate","color":"#b58900"},"geometry":{"type":"Polygon","coordinates":[[[-114.0,39.0],[-112.0,39.0],[-112.0,41.0],[-114.0,41.0],[-114.0,39.0]]]}},{"type":"Feature","properties":{"ss":0.45,"category":"Moderate","color":"#b58900"},"geometry":{"type":"Polygon","coordinates":[[[-112.0,39.0],[-110.0,39.0],[-110.0,41.0],[-112.0,41.0],[-112.0,39.0]]]}},{"type":"Feature","properties":{"ss":0.27,"category":"Moderate","color":"#b58900"},"geometry":{"type":"Polygon","coordinates":[[[-110.0,39.0],[-108.0,39.0],[-108.0,41.0],[-110.0,41.0],[-110.0,39.0]]]}},{"type":"Feature","properties":{"ss":0.3,"category":"Moderate","color":"#b58900"},"geometry":{"type":"Polygon","coordinates":[[[-108.0,39.0],[-106.0,39.0],[-106.0,41.0],[-108.0,41.0],[-108.0,39.0]]]}},{"type":"Feature","properties":{"ss":0.19,"category":"Low","color":"#2e7d32"},"geometry":{"type":"Polygon","coordinates":[[[-106.0,39.0],[-104.0,39.0],[-104.0,41.0],[-106.0,41.0],[-106.0,39.0]]]}},{"type":"Feature","properties":{"ss":0.1,"category":"Low","color":"#2e7d32"},"geometry":{"type":"Polygon","coordinates":[[[-104.0,39.0],[-102.0,39.0],[-102.0,41.0],[-104.0,41.0],[-104.0,39.0]]]}},{"type":"Feature","properties":{"ss":0.086,"category":"Low","color":"#2e7d32"},"geometry":{"type":"Polygon","coordinates":[[[-102.0,39.0],[-100.0,39.0],[-100.0,41.0],[-102.0,41.0],[-102.0,39.0]]]}},{"type":"Feature","properties":{"ss":0.098,"category":"Low","color":"#2e7d32"},"geometry":{"type":"Polygon","coordinates":[[[-100.0,39.0],[-98.0,39.0],[-98.0,41.0],[-100.0,41.0],[-100.0,39.0]]]}},{"type":"Feature","properties":{"ss":0.095,"category":"Low","color":"#2e7d32"},"geometry":{"type":"Polygon","coordinates":[[[-98.0,39.0],[-96.0,39.0],[-96.0,41.0],[-98.0,41.0],[-98.0,39.0]]]}},{"type":"Feature","properties":{"ss":0.11,"category":"Low","color":"#2e7d32"},"geometry":{"type":"Polygon","coordinates":[[[-96.0,39.0],[-94.0,39.0],[-94.0,41.0],[-96.0,41.0],[-96.0,39.0]]]}},{"type":"Feature","properties":{"ss":0.16,"category":"Low","color":"#2e7d32"},"geometry":{"type":"Polygon","coordinates":[[[-94.0,39.0],[-92.0,39.0],[-92.0,41.0],[-94.0,41.0],[-94.0,39.0]]]}},{"type":"Feature","properties":{"ss":0.24,"category":"Low","color":"#2e7d32"},"geometry":{"type":"Polygon","coordinates":[[[-92.0,39.0],[-90.0,39.0],[-90.0,41.0],[-92.0,41.0],[-92.0,39.0]]]}},{"type":"Feature","properties":{"ss":0.29,"category":"Moderate","color":"#b58900"},"geometry":{"type":"Polygon","coordinates":[[[-90.0,39.0],[-88.0,39.0],[-88.0,41.0],[-90.0,41.0],[-90.0,39.0]]]}},{"type":"Feature","properties":{"ss":0.27,"category":"Moderate","color":"#b58900"},"geometry":{"type":"Polygon","coordinates":[[[-88.0,39.0],[-86.0,39.0],[-86.0,41.0],[-88.0,41.0],[-88.0,39.0]]]}},{"type":"Feature","properties":{"ss":0.2,"category":"Low","color":"#2e7d32"},"geometry":{"type":"Polygon","coordinates":[[[-86.0,39.0],[-84.0,39.0],[-84.0,41.0],[-86.0,41.0],[-86.0,39.0]]]}},{"type":"Feature","properties":{"ss":0.16,"category":"Low","color":"#2e7d32"},"geometry":{"type":"Polygon","coordinates":[[[-84.0,39.0],[-82.0,39.0],[-82.0,41.0],[-84.0,41.0],[-84.0,39.0]]]}},{"type":"Feature","properties":{"ss":0.12,"category":"Low","color":"#2e7d32"},"geometry":{"type":"Polygon","coordinates":[[[-82.0,39.0],[-80.0,39.0],[-80.0,41.0],[-82.0,41.0],[-82.0,39.0]]]}},{"type":"Feature","properties":{"ss":0.11,"category":"Low","color":"#2e7d32"},"geometry":{"type":"Polygon","coordinates":[[[-80.0,39.0],[-78.0,39.0],[-78.0,41.0],[-80.0,41.0],[-80.0,39.0]]]}},{"type":"Feature","properties":{"ss":0.15,"category":"Low","color":"#2e7d32"},"geometry":{"type":"Polygon","coordinates":[[[-78.0,39.0],[-76.0,39.0],[-76.0,41.0],[-78.0,41.0],[-78.0,39.0]]]}},{"type":"Feature","properties":{"ss":0.21,"category":"Low","color":"#2e7d32"},"geometry":{"type":"Polygon","coordinates":[[[-76.0,39.0],[-74.0,39.0],[-74.0,41.0],[-76.0,41.0],[-76.0,39.0]]]}},{"type":"Feature","properties":{"ss":3.34,"category":"Very High","color":"#c1272d"},"geometry":{"type":"Polygon","coordinates":[[[-126.0,41.0],[-124.0,41.0],[-124.0,43.0],[-126.0,43.0],[-126.0,41.0]]]}},{"type":"Feature","properties":{"ss":0.9,"category":"High","color":"#d2691e"},"geometry":{"type":"Polygon","coordinates":[[[-124.0,41.0],[-122.0,41.0],[-122.0,43.0],[-124.0,43.0],[-124.0,41.0]]]}},{"type":"Feature","properties":{"ss":0.57,"category":"High","color":"#d2691e"},"geometry":{"type":"Polygon","coordinates":[[[-122.0,41.0],[-120.0,41.0],[-120.0,43.0],[-122.0,43.0],[-122.0,41.0]]]}},{"type":"Feature","properties":{"ss":0.47,"category":"Moderate","color":"#b58900"},"geometry":{"type":"Polygon","coordinates":[[[-120.0,41.0],[-118.0,41.0],[-118.0,43.0],[-120.0,43.0],[-120.0,41.0]]]}},{"type":"Feature","properties":{"ss":0.31,"category":"Moderate","color":"#b58900"},"geometry":{"type":"Polygon","coordinates":[[[-118.0,41.0],[-116.0,41.0],[-116.0,43.0],[-118.0,43.0],[-118.0,41.0]]]}},{"type":"Feature","properties":{"ss":0.3,"category":"Moderate","color":"#b58900"},"geometry":{"type":"Polygon","coordinates":[[[-116.0,41.0],[-114.0,41.0],[-114.0,43.0],[-116.0,43.0],[-116.0,41.0]]]}},{"type":"Feature","properties":{"ss":0.54,"category":"High","color":"#d2691e"},"geometry":{"type":"Polygon","coordinates":[[[-114.0,41.0],[-112.0,41.0],[-112.0,43.0],[-114.0,43.0],[-114.0,41.0]]]}},{"type":"Feature","properties":{"ss":1.12,"category":"Very High","color":"#c1272d"},"geometry":{"type":"Polygon","coordinates":[[[-112.0,41.0],[-110.0,41.0],[-110.0,43.0],[-112.0,43.0],[-112.0,41.0]]]}},{"type":"Feature","properties":{"ss":0.3,"category":"Moderate","color":"#b58900"},"geometry":{"type":"Polygon","coordinates":[[[-110.0,41.0],[-108.0,41.0],[-108.0,43.0],[-110.0,43.0],[-110.0,41.0]]]}},{"type":"Feature","properties":{"ss":0.31,"category":"Moderate","color":"#b58900"},"geometry":{"type":"Polygon","coordinates":[[[-108.0,41.0],[-106.0,41.0],[-106.0,43.0],[-108.0,43.0],[-108.0,41.0]]]}},{"type":"Feature","properties":{"ss":0.22,"category":"Low","color":"#2e7d32"},"geometry":{"type":"Polygon","coordinates":[[[-106.0,41.0],[-104.0,41.0],[-104.0,43.0],[-106.0,43.0],[-106.0,41.0]]]}},{"type":"Feature","properties":{"ss":0.13,"category":"Low","color":"#2e7d32"},"geometry":{"type":"Polygon","coordinates":[[[-104.0,41.0],[-102.0,41.0],[-102.0,43.0],[-104.0,43.0],[-104.0,41.0]]]}},{"type":"Feature","properties":{"ss":0.12,"category":"Low","color":"#2e7d32"},"geometry":{"type":"Polygon","coordinates":[[[-102.0,41.0],[-100.0,41.0],[-100.0,43.0],[-102.0,43.0],[-102.0,41.0]]]}},{"type":"Feature","properties":{"ss":0.11,"category":"Low","color":"#2e7d32"},"geometry":{"type":"Polygon","coordinates":[[[-100.0,41.0],[-98.0,41.0],[-98.0,43.0],[-100.0,43.0],[-100.0,41.0]]]}},{"type":"Feature","properties":{"ss":0.11,"category":"Low","color":"#2e7d32"},"geometry":{"type":"Polygon","coordinates":[[[-98.0,41.0],[-96.0,41.0],[-96.0,43.0],[-98.0,43.0],[-98.0,41.0]]]}},{"type":"Feature","properties":{"ss":0.076,"category":"Low","color":"#2e7d32"},"geometry":{"type":"Polygon","coordinates":[[[-96.0,41.0],[-94.0,41.0],[-94.0,43.0],[-96.0,43.0],[-96.0,41.0]]]}},{"type":"Feature","properties":{"ss":0.086,"category":"Low","color":"#2e7d32"},"geometry":{"type":"Polygon","coordinates":[[[-94.0,41.0],[-92.0,41.0],[-92.0,43.0],[-94.0,43.0],[-94.0,41.0]]]}},{"type":"Feature","properties":{"ss":0.11,"category":"Low","color":"#2e7d32"},"geometry":{"type":"Polygon","coordinates":[[[-92.0,41.0],[-90.0,41.0],[-90.0,43.0],[-92.0,43.0],[-92.0,41.0]]]}},{"type":"Feature","properties":{"ss":0.15,"category":"Low","color":"#2e7d32"},"geometry":{"type":"Polygon","coordinates":[[[-90.0,41.0],[-88.0,41.0],[-88.0,43.0],[-90.0,43.0],[-90.0,41.0]]]}},{"type":"Feature","properties":{"ss":0.13,"category":"Low","color":"#2e7d32"},"geometry":{"type":"Polygon","coordinates":[[[-88.0,41.0],[-86.0,41.0],[-86.0,43.0],[-88.0,43.0],[-88.0,41.0]]]}},{"type":"Feature","properties":{"ss":0.15,"category":"Low","color":"#2e7d32"},"geometry":{"type":"Polygon","coordinates":[[[-86.0,41.0],[-84.0,41.0],[-84.0,43.0],[-86.0,43.0],[-86.0,41.0]]]}},{"type":"Feature","properties":{"ss":0.12,"category":"Low","color":"#2e7d32"},"geometry":{"type":"Polygon","coordinates":[[[-84.0,41.0],[-82.0,41.0],[-82.0,43.0],[-84.0,43.0],[-84.0,41.0]]]}},{"type":"Feature","properties":{"ss":0.13,"category":"Low","color":"#2e7d32"},"geometry":{"type":"Polygon","coordinates":[[[-82.0,41.0],[-80.0,41.0],[-80.0,43.0],[-82.0,43.0],[-82.0,41.0]]]}},{"type":"Feature","properties":{"ss":0.12,"category":"Low","color":"#2e7d32"},"geometry":{"type":"Polygon","coordinates":[[[-80.0,41.0],[-78.0,41.0],[-78.0,43.0],[-80.0,43.0],[-80.0,41.0]]]}},{"type":"Feature","properties":{"ss":0.13,"category":"Low","color":"#2e7d32"},"geometry":{"type":"Polygon","coordinates":[[[-78.0,41.0],[-76.0,41.0],[-76.0,43.0],[-78.0,43.0],[-78.0,41.0]]]}},{"type":"Feature","properties":{"ss":0.16,"category":"Low","color":"#2e7d32"},"geometry":{"type":"Polygon","coordinates":[[[-76.0,41.0],[-74.0,41.0],[-74.0,43.0],[-76.0,43.0],[-76.0,41.0]]]}},{"type":"Feature","properties":{"ss":0.19,"category":"Low","color":"#2e7d32"},"geometry":{"type":"Polygon","coordinates":[[[-74.0,41.0],[-72.0,41.0],[-72.0,43.0],[-74.0,43.0],[-74.0,41.0]]]}},{"type":"Feature","properties":{"ss":0.21,"category":"Low","color":"#2e7d32"},"geometry":{"type":"Polygon","coordinates":[[[-72.0,41.0],[-70.0,41.0],[-70.0,43.0],[-72.0,43.0],[-72.0,41.0]]]}},{"type":"Feature","properties":{"ss":0.78,"category":"High","color":"#d2691e"},"geometry":{"type":"Polygon","coordinates":[[[-124.0,43.0],[-122.0,43.0],[-122.0,45.0],[-124.0,45.0],[-124.0,43.0]]]}},{"type":"Feature","properties":{"ss":0.37,"category":"Moderate","color":"#b58900"},"geometry":{"type":"Polygon","coordinates":[[[-122.0,43.0],[-120.0,43.0],[-120.0,45.0],[-122.0,45.0],[-122.0,43.0]]]}},{"type":"Feature","properties":{"ss":0.3,"category":"Moderate","color":"#b58900"},"geometry":{"type":"Polygon","coordinates":[[[-120.0,43.0],[-118.0,43.0],[-118.0,45.0],[-120.0,45.0],[-120.0,43.0]]]}},{"type":"Feature","properties":{"ss":0.33,"category":"Moderate","color":"#b58900"},"geometry":{"type":"Polygon","coordinates":[[[-118.0,43.0],[-116.0,43.0],[-116.0,45.0],[-118.0,45.0],[-118.0,43.0]]]}},{"type":"Feature","properties":{"ss":0.87,"category":"High","color":"#d2691e"},"geometry":{"type":"Polygon","coordinates":[[[-116.0,43.0],[-114.0,43.0],[-114.0,45.0],[-116.0,45.0],[-116.0,43.0]]]}},{"type":"Feature","properties":{"ss":0.76,"category":"High","color":"#d2691e"},"geometry":{"type":"Polygon","coordinates":[[[-114.0,43.0],[-112.0,43.0],[-112.0,45.0],[-114.0,45.0],[-114.0,43.0]]]}},{"type":"Feature","properties":{"ss":0.73,"category":"High","color":"#d2691e"},"geometry":{"type":"Polygon","coordinates":[[[-112.0,43.0],[-110.0,43.0],[-110.0,45.0],[-112.0,45.0],[-112.0,43.0]]]}},{"type":"Feature","properties":{"ss":0.32,"category":"Moderate","color":"#b58900"},"geometry":{"type":"Polygon","coordinates":[[[-110.0,43.0],[-108.0,43.0],[-108.0,45.0],[-110.0,45.0],[-110.0,43.0]]]}},{"type":"Feature","properties":{"ss":0.3,"category":"Moderate","color":"#b58900"},"geometry":{"type":"Polygon","coordinates":[[[-108.0,43.0],[-106.0,43.0],[-106.0,45.0],[-108.0,45.0],[-108.0,43.0]]]}},{"type":"Feature","properties":{"ss":0.19,"category":"Low","color":"#2e7d32"},"geometry":{"type":"Polygon","coordinates":[[[-106.0,43.0],[-104.0,43.0],[-104.0,45.0],[-106.0,45.0],[-106.0,43.0]]]}},{"type":"Feature","properties":{"ss":0.15,"category":"Low","color":"#2e7d32"},"geometry":{"type":"Polygon","coordinates":[[[-104.0,43.0],[-102.0,43.0],[-102.0,45.0],[-104.0,45.0],[-104.0,43.0]]]}},{"type":"Feature","properties":{"ss":0.12,"category":"Low","color":"#2e7d32"},"geometry":{"type":"Polygon","coordinates":[[[-102.0,43.0],[-100.0,43.0],[-100.0,45.0],[-102.0,45.0],[-102.0,43.0]]]}},{"type":"Feature","properties":{"ss":0.16,"category":"Low","color":"#2e7d32"},"geometry":{"type":"Polygon","coordinates":[[[-100.0,43.0],[-98.0,43.0],[-98.0,45.0],[-100.0,45.0],[-100.0,43.0]]]}},{"type":"Feature","properties":{"ss":0.096,"category":"Low","color":"#2e7d32"},"geometry":{"type":"Polygon","coordinates":[[[-98.0,43.0],[-96.0,43.0],[-96.0,45.0],[-98.0,45.0],[-98.0,43.0]]]}},{"type":"Feature","properties":{"ss":0.064,"category":"Low","color":"#2e7d32"},"geometry":{"type":"Polygon","coordinates":[[[-96.0,43.0],[-94.0,43.0],[-94.0,45.0],[-96.0,45.0],[-96.0,43.0]]]}},{"type":"Feature","properties":{"ss":0.057,"category":"Low","color":"#2e7d32"},"geometry":{"type":"Polygon","coordinates":[[[-94.0,43.0],[-92.0,43.0],[-92.0,45.0],[-94.0,45.0],[-94.0,43.0]]]}},{"type":"Feature","properties":{"ss":0.062,"category":"Low","color":"#2e7d32"},"geometry":{"type":"Polygon","coordinates":[[[-92.0,43.0],[-90.0,43.0],[-90.0,45.0],[-92.0,45.0],[-92.0,43.0]]]}},{"type":"Feature","properties":{"ss":0.068,"category":"Low","color":"#2e7d32"},"geometry":{"type":"Polygon","coordinates":[[[-90.0,43.0],[-88.0,43.0],[-88.0,45.0],[-90.0,45.0],[-90.0,43.0]]]}},{"type":"Feature","properties":{"ss":0.069,"category":"Low","color":"#2e7d32"},"geometry":{"type":"Polygon","coordinates":[[[-88.0,43.0],[-86.0,43.0],[-86.0,45.0],[-88.0,45.0],[-88.0,43.0]]]}},{"type":"Feature","properties":{"ss":0.069,"category":"Low","color":"#2e7d32"},"geometry":{"type":"Polygon","coordinates":[[[-86.0,43.0],[-84.0,43.0],[-84.0,45.0],[-86.0,45.0],[-86.0,43.0]]]}},{"type":"Feature","properties":{"ss":0.071,"category":"Low","color":"#2e7d32"},"geometry":{"type":"Polygon","coordinates":[[[-84.0,43.0],[-82.0,43.0],[-82.0,45.0],[-84.0,45.0],[-84.0,43.0]]]}},{"type":"Feature","properties":{"ss":0.32,"category":"Moderate","color":"#b58900"},"geometry":{"type":"Polygon","coordinates":[[[-76.0,43.0],[-74.0,43.0],[-74.0,45.0],[-76.0,45.0],[-76.0,43.0]]]}},{"type":"Feature","properties":{"ss":0.28,"category":"Moderate","color":"#b58900"},"geometry":{"type":"Polygon","coordinates":[[[-74.0,43.0],[-72.0,43.0],[-72.0,45.0],[-74.0,45.0],[-74.0,43.0]]]}},{"type":"Feature","properties":{"ss":0.3,"category":"Moderate","color":"#b58900"},"geometry":{"type":"Polygon","coordinates":[[[-72.0,43.0],[-70.0,43.0],[-70.0,45.0],[-72.0,45.0],[-72.0,43.0]]]}},{"type":"Feature","properties":{"ss":0.24,"category":"Low","color":"#2e7d32"},"geometry":{"type":"Polygon","coordinates":[[[-70.0,43.0],[-68.0,43.0],[-68.0,45.0],[-70.0,45.0],[-70.0,43.0]]]}},{"type":"Feature","properties":{"ss":1.01,"category":"Very High","color":"#c1272d"},"geometry":{"type":"Polygon","coordinates":[[[-124.0,45.0],[-122.0,45.0],[-122.0,47.0],[-124.0,47.0],[-124.0,45.0]]]}},{"type":"Feature","properties":{"ss":0.49,"category":"Moderate","color":"#b58900"},"geometry":{"type":"Polygon","coordinates":[[[-122.0,45.0],[-120.0,45.0],[-120.0,47.0],[-122.0,47.0],[-122.0,45.0]]]}},{"type":"Feature","properties":{"ss":0.44,"category":"Moderate","color":"#b58900"},"geometry":{"type":"Polygon","coordinates":[[[-120.0,45.0],[-118.0,45.0],[-118.0,47.0],[-120.0,47.0],[-120.0,45.0]]]}},{"type":"Feature","properties":{"ss":0.32,"category":"Moderate","color":"#b58900"},"geometry":{"type":"Polygon","coordinates":[[[-118.0,45.0],[-116.0,45.0],[-116.0,47.0],[-118.0,47.0],[-118.0,45.0]]]}},{"type":"Feature","properties":{"ss":0.31,"category":"Moderate","color":"#b58900"},"geometry":{"type":"Polygon","coordinates":[[[-116.0,45.0],[-114.0,45.0],[-114.0,47.0],[-116.0,47.0],[-116.0,45.0]]]}},{"type":"Feature","properties":{"ss":0.36,"category":"Moderate","color":"#b58900"},"geometry":{"type":"Polygon","coordinates":[[[-114.0,45.0],[-112.0,45.0],[-112.0,47.0],[-114.0,47.0],[-114.0,45.0]]]}},{"type":"Feature","properties":{"ss":0.64,"category":"High","color":"#d2691e"},"geometry":{"type":"Polygon","coordinates":[[[-112.0,45.0],[-110.0,45.0],[-110.0,47.0],[-112.0,47.0],[-112.0,45.0]]]}},{"type":"Feature","properties":{"ss":0.13,"category":"Low","color":"#2e7d32"},"geometry":{"type":"Polygon","coordinates":[[[-110.0,45.0],[-108.0,45.0],[-108.0,47.0],[-110.0,47.0],[-110.0,45.0]]]}},{"type":"Feature","properties":{"ss":0.12,"category":"Low","color":"#2e7d32"},"geometry":{"type":"Polygon","coordinates":[[[-108.0,45.0],[-106.0,45.0],[-106.0,47.0],[-108.0,47.0],[-108.0,45.0]]]}},{"type":"Feature","properties":{"ss":0.096,"category":"Low","color":"#2e7d32"},"geometry":{"type":"Polygon","coordinates":[[[-106.0,45.0],[-104.0,45.0],[-104.0,47.0],[-106.0,47.0],[-106.0,45.0]]]}},{"type":"Feature","properties":{"ss":0.074,"category":"Low","color":"#2e7d32"},"geometry":{"type":"Polygon","coordinates":[[[-104.0,45.0],[-102.0,45.0],[-102.0,47.0],[-104.0,47.0],[-104.0,45.0]]]}},{"type":"Feature","properties":{"ss":0.067,"category":"Low","color":"#2e7d32"},"geometry":{"type":"Polygon","coordinates":[[[-102.0,45.0],[-100.0,45.0],[-100.0,47.0],[-102.0,47.0],[-102.0,45.0]]]}},{"type":"Feature","properties":{"ss":0.072,"category":"Low","color":"#2e7d32"},"geometry":{"type":"Polygon","coordinates":[[[-100.0,45.0],[-98.0,45.0],[-98.0,47.0],[-100.0,47.0],[-100.0,45.0]]]}},{"type":"Feature","properties":{"ss":0.09,"category":"Low","color":"#2e7d32"},"geometry":{"type":"Polygon","coordinates":[[[-98.0,45.0],[-96.0,45.0],[-96.0,47.0],[-98.0,47.0],[-98.0,45.0]]]}},{"type":"Feature","properties":{"ss":0.065,"category":"Low","color":"#2e7d32"},"geometry":{"type":"Polygon","coordinates":[[[-96.0,45.0],[-94.0,45.0],[-94.0,47.0],[-96.0,47.0],[-96.0,45.0]]]}},{"type":"Feature","properties":{"ss":0.047,"category":"Low","color":"#2e7d32"},"geometry":{"type":"Polygon","coordinates":[[[-94.0,45.0],[-92.0,45.0],[-92.0,47.0],[-94.0,47.0],[-94.0,45.0]]]}},{"type":"Feature","properties":{"ss":0.045,"category":"Low","color":"#2e7d32"},"geometry":{"type":"Polygon","coordinates":[[[-92.0,45.0],[-90.0,45.0],[-90.0,47.0],[-92.0,47.0],[-92.0,45.0]]]}},{"type":"Feature","properties":{"ss":0.047,"category":"Low","color":"#2e7d32"},"geometry":{"type":"Polygon","coordinates":[[[-90.0,45.0],[-88.0,45.0],[-88.0,47.0],[-90.0,47.0],[-90.0,45.0]]]}},{"type":"Feature","properties":{"ss":0.047,"category":"Low","color":"#2e7d32"},"geometry":{"type":"Polygon","coordinates":[[[-88.0,45.0],[-86.0,45.0],[-86.0,47.0],[-88.0,47.0],[-88.0,45.0]]]}},{"type":"Feature","properties":{"ss":0.052,"category":"Low","color":"#2e7d32"},"geometry":{"type":"Polygon","coordinates":[[[-86.0,45.0],[-84.0,45.0],[-84.0,47.0],[-86.0,47.0],[-86.0,45.0]]]}},{"type":"Feature","properties":{"ss":0.32,"category":"Moderate","color":"#b58900"},"geometry":{"type":"Polygon","coordinates":[[[-72.0,45.0],[-70.0,45.0],[-70.0,47.0],[-72.0,47.0],[-72.0,45.0]]]}},{"type":"Feature","properties":{"ss":0.3,"category":"Moderate","color":"#b58900"},"geometry":{"type":"Polygon","coordinates":[[[-70.0,45.0],[-68.0,45.0],[-68.0,47.0],[-70.0,47.0],[-70.0,45.0]]]}},{"type":"Feature","properties":{"ss":0.21,"category":"Low","color":"#2e7d32"},"geometry":{"type":"Polygon","coordinates":[[[-126.0,47.0],[-124.0,47.0],[-124.0,49.0],[-126.0,49.0],[-126.0,47.0]]]}},{"type":"Feature","properties":{"ss":1.5,"category":"Very High","color":"#c1272d"},"geometry":{"type":"Polygon","coordinates":[[[-124.0,47.0],[-122.0,47.0],[-122.0,49.0],[-124.0,49.0],[-124.0,47.0]]]}},{"type":"Feature","properties":{"ss":0.77,"category":"High","color":"#d2691e"},"geometry":{"type":"Polygon","coordinates":[[[-122.0,47.0],[-120.0,47.0],[-120.0,49.0],[-122.0,49.0],[-122.0,47.0]]]}},{"type":"Feature","properties":{"ss":0.4,"category":"Moderate","color":"#b58900"},"geometry":{"type":"Polygon","coordinates":[[[-120.0,47.0],[-118.0,47.0],[-118.0,49.0],[-120.0,49.0],[-120.0,47.0]]]}},{"type":"Feature","properties":{"ss":0.34,"category":"Moderate","color":"#b58900"},"geometry":{"type":"Polygon","coordinates":[[[-118.0,47.0],[-116.0,47.0],[-116.0,49.0],[-118.0,49.0],[-118.0,47.0]]]}},{"type":"Feature","properties":{"ss":0.54,"category":"High","color":"#d2691e"},"geometry":{"type":"Polygon","coordinates":[[[-116.0,47.0],[-114.0,47.0],[-114.0,49.0],[-116.0,49.0],[-116.0,47.0]]]}},{"type":"Feature","properties":{"ss":0.45,"category":"Moderate","color":"#b58900"},"geometry":{"type":"Polygon","coordinates":[[[-114.0,47.0],[-112.0,47.0],[-112.0,49.0],[-114.0,49.0],[-114.0,47.0]]]}},{"type":"Feature","properties":{"ss":0.12,"category":"Low","color":"#2e7d32"},"geometry":{"type":"Polygon","coordinates":[[[-112.0,47.0],[-110.0,47.0],[-110.0,49.0],[-112.0,49.0],[-112.0,47.0]]]}},{"type":"Feature","properties":{"ss":0.072,"category":"Low","color":"#2e7d32"},"geometry":{"type":"Polygon","coordinates":[[[-110.0,47.0],[-108.0,47.0],[-108.0,49.0],[-110.0,49.0],[-110.0,47.0]]]}},{"type":"Feature","properties":{"ss":0.07,"category":"Low","color":"#2e7d32"},"geometry":{"type":"Polygon","coordinates":[[[-108.0,47.0],[-106.0,47.0],[-106.0,49.0],[-108.0,49.0],[-108.0,47.0]]]}},{"type":"Feature","properties":{"ss":0.087,"category":"Low","color":"#2e7d32"},"geometry":{"type":"Polygon","coordinates":[[[-106.0,47.0],[-104.0,47.0],[-104.0,49.0],[-106.0,49.0],[-106.0,47.0]]]}},{"type":"Feature","properties":{"ss":0.072,"category":"Low","color":"#2e7d32"},"geometry":{"type":"Polygon","coordinates":[[[-104.0,47.0],[-102.0,47.0],[-102.0,49.0],[-104.0,49.0],[-104.0,47.0]]]}},{"type":"Feature","properties":{"ss":0.053,"category":"Low","color":"#2e7d32"},"geometry":{"type":"Polygon","coordinates":[[[-102.0,47.0],[-100.0,47.0],[-100.0,49.0],[-102.0,49.0],[-102.0,47.0]]]}},{"type":"Feature","properties":{"ss":0.048,"category":"Low","color":"#2e7d32"},"geometry":{"type":"Polygon","coordinates":[[[-100.0,47.0],[-98.0,47.0],[-98.0,49.0],[-100.0,49.0],[-100.0,47.0]]]}},{"type":"Feature","properties":{"ss":0.048,"category":"Low","color":"#2e7d32"},"geometry":{"type":"Polygon","coordinates":[[[-98.0,47.0],[-96.0,47.0],[-96.0,49.0],[-98.0,49.0],[-98.0,47.0]]]}},{"type":"Feature","properties":{"ss":0.045,"category":"Low","color":"#2e7d32"},"geometry":{"type":"Polygon","coordinates":[[[-96.0,47.0],[-94.0,47.0],[-94.0,49.0],[-96.0,49.0],[-96.0,47.0]]]}},{"type":"Feature","properties":{"ss":0.042,"category":"Low","color":"#2e7d32"},"geometry":{"type":"Polygon","coordinates":[[[-94.0,47.0],[-92.0,47.0],[-92.0,49.0],[-94.0,49.0],[-94.0,47.0]]]}},{"type":"Feature","properties":{"ss":0.041,"category":"Low","color":"#2e7d32"},"geometry":{"type":"Polygon","coordinates":[[[-92.0,47.0],[-90.0,47.0],[-90.0,49.0],[-92.0,49.0],[-92.0,47.0]]]}},{"type":"Feature","properties":{"ss":0.043,"category":"Low","color":"#2e7d32"},"geometry":{"type":"Polygon","coordinates":[[[-90.0,47.0],[-88.0,47.0],[-88.0,49.0],[-90.0,49.0],[-90.0,47.0]]]}},{"type":"Feature","properties":{"ss":0.47,"category":"Moderate","color":"#b58900"},"geometry":{"type":"Polygon","coordinates":[[[-126.0,49.0],[-124.0,49.0],[-124.0,51.0],[-126.0,51.0],[-126.0,49.0]]]}},{"type":"Feature","properties":{"ss":0.99,"category":"High","color":"#d2691e"},"geometry":{"type":"Polygon","coordinates":[[[-171.0,53.0],[-169.0,53.0],[-169.0,55.0],[-171.0,55.0],[-171.0,53.0]]]}},{"type":"Feature","properties":{"ss":1.32,"category":"Very High","color":"#c1272d"},"geometry":{"type":"Polygon","coordinates":[[[-169.0,53.0],[-167.0,53.0],[-167.0,55.0],[-169.0,55.0],[-169.0,53.0]]]}},{"type":"Feature","properties":{"ss":1.5,"category":"Very High","color":"#c1272d"},"geometry":{"type":"Polygon","coordinates":[[[-167.0,53.0],[-165.0,53.0],[-165.0,55.0],[-167.0,55.0],[-167.0,53.0]]]}},{"type":"Feature","properties":{"ss":1.5,"category":"Very High","color":"#c1272d"},"geometry":{"type":"Polygon","coordinates":[[[-165.0,53.0],[-163.0,53.0],[-163.0,55.0],[-165.0,55.0],[-165.0,53.0]]]}},{"type":"Feature","properties":{"ss":1.5,"category":"Very High","color":"#c1272d"},"geometry":{"type":"Polygon","coordinates":[[[-163.0,53.0],[-161.0,53.0],[-161.0,55.0],[-163.0,55.0],[-163.0,53.0]]]}},{"type":"Feature","properties":{"ss":1.5,"category":"Very High","color":"#c1272d"},"geometry":{"type":"Polygon","coordinates":[[[-161.0,53.0],[-159.0,53.0],[-159.0,55.0],[-161.0,55.0],[-161.0,53.0]]]}},{"type":"Feature","properties":{"ss":1.5,"category":"Very High","color":"#c1272d"},"geometry":{"type":"Polygon","coordinates":[[[-159.0,53.0],[-157.0,53.0],[-157.0,55.0],[-159.0,55.0],[-159.0,53.0]]]}},{"type":"Feature","properties":{"ss":1.5,"category":"Very High","color":"#c1272d"},"geometry":{"type":"Polygon","coordinates":[[[-157.0,53.0],[-155.0,53.0],[-155.0,55.0],[-157.0,55.0],[-157.0,53.0]]]}},{"type":"Feature","properties":{"ss":1.5,"category":"Very High","color":"#c1272d"},"geometry":{"type":"Polygon","coordinates":[[[-155.0,53.0],[-153.0,53.0],[-153.0,55.0],[-155.0,55.0],[-155.0,53.0]]]}},{"type":"Feature","properties":{"ss":1.5,"category":"Very High","color":"#c1272d"},"geometry":{"type":"Polygon","coordinates":[[[-153.0,53.0],[-151.0,53.0],[-151.0,55.0],[-153.0,55.0],[-153.0,53.0]]]}},{"type":"Feature","properties":{"ss":1.5,"category":"Very High","color":"#c1272d"},"geometry":{"type":"Polygon","coordinates":[[[-151.0,53.0],[-149.0,53.0],[-149.0,55.0],[-151.0,55.0],[-151.0,53.0]]]}},{"type":"Feature","properties":{"ss":1.5,"category":"Very High","color":"#c1272d"},"geometry":{"type":"Polygon","coordinates":[[[-149.0,53.0],[-147.0,53.0],[-147.0,55.0],[-149.0,55.0],[-149.0,53.0]]]}},{"type":"Feature","properties":{"ss":1.5,"category":"Very High","color":"#c1272d"},"geometry":{"type":"Polygon","coordinates":[[[-147.0,53.0],[-145.0,53.0],[-145.0,55.0],[-147.0,55.0],[-147.0,53.0]]]}},{"type":"Feature","properties":{"ss":1.5,"category":"Very High","color":"#c1272d"},"geometry":{"type":"Polygon","coordinates":[[[-145.0,53.0],[-143.0,53.0],[-143.0,55.0],[-145.0,55.0],[-145.0,53.0]]]}},{"type":"Feature","properties":{"ss":1.5,"category":"Very High","color":"#c1272d"},"geometry":{"type":"Polygon","coordinates":[[[-143.0,53.0],[-141.0,53.0],[-141.0,55.0],[-143.0,55.0],[-143.0,53.0]]]}},{"type":"Feature","properties":{"ss":1.5,"category":"Very High","color":"#c1272d"},"geometry":{"type":"Polygon","coordinates":[[[-141.0,53.0],[-139.0,53.0],[-139.0,55.0],[-141.0,55.0],[-141.0,53.0]]]}},{"type":"Feature","properties":{"ss":1.5,"category":"Very High","color":"#c1272d"},"geometry":{"type":"Polygon","coordinates":[[[-139.0,53.0],[-137.0,53.0],[-137.0,55.0],[-139.0,55.0],[-139.0,53.0]]]}},{"type":"Feature","properties":{"ss":1.5,"category":"Very High","color":"#c1272d"},"geometry":{"type":"Polygon","coordinates":[[[-137.0,53.0],[-135.0,53.0],[-135.0,55.0],[-137.0,55.0],[-137.0,53.0]]]}},{"type":"Feature","properties":{"ss":1.5,"category":"Very High","color":"#c1272d"},"geometry":{"type":"Polygon","coordinates":[[[-135.0,53.0],[-133.0,53.0],[-133.0,55.0],[-135.0,55.0],[-135.0,53.0]]]}},{"type":"Feature","properties":{"ss":1.5,"category":"Very High","color":"#c1272d"},"geometry":{"type":"Polygon","coordinates":[[[-133.0,53.0],[-131.0,53.0],[-131.0,55.0],[-133.0,55.0],[-133.0,53.0]]]}},{"type":"Feature","properties":{"ss":1.5,"category":"Very High","color":"#c1272d"},"geometry":{"type":"Polygon","coordinates":[[[-131.0,53.0],[-129.0,53.0],[-129.0,55.0],[-131.0,55.0],[-131.0,53.0]]]}},{"type":"Feature","properties":{"ss":0.31,"category":"Moderate","color":"#b58900"},"geometry":{"type":"Polygon","coordinates":[[[-171.0,55.0],[-169.0,55.0],[-169.0,57.0],[-171.0,57.0],[-171.0,55.0]]]}},{"type":"Feature","properties":{"ss":0.37,"category":"Moderate","color":"#b58900"},"geometry":{"type":"Polygon","coordinates":[[[-169.0,55.0],[-167.0,55.0],[-167.0,57.0],[-169.0,57.0],[-169.0,55.0]]]}},{"type":"Feature","properties":{"ss":0.49,"category":"Moderate","color":"#b58900"},"geometry":{"type":"Polygon","coordinates":[[[-167.0,55.0],[-165.0,55.0],[-165.0,57.0],[-167.0,57.0],[-167.0,55.0]]]}},{"type":"Feature","properties":{"ss":0.63,"category":"High","color":"#d2691e"},"geometry":{"type":"Polygon","coordinates":[[[-165.0,55.0],[-163.0,55.0],[-163.0,57.0],[-165.0,57.0],[-165.0,55.0]]]}},{"type":"Feature","properties":{"ss":0.78,"category":"High","color":"#d2691e"},"geometry":{"type":"Polygon","coordinates":[[[-163.0,55.0],[-161.0,55.0],[-161.0,57.0],[-163.0,57.0],[-163.0,55.0]]]}},{"type":"Feature","properties":{"ss":1.06,"category":"Very High","color":"#c1272d"},"geometry":{"type":"Polygon","coordinates":[[[-161.0,55.0],[-159.0,55.0],[-159.0,57.0],[-161.0,57.0],[-161.0,55.0]]]}},{"type":"Feature","properties":{"ss":1.5,"category":"Very High","color":"#c1272d"},"geometry":{"type":"Polygon","coordinates":[[[-159.0,55.0],[-157.0,55.0],[-157.0,57.0],[-159.0,57.0],[-159.0,55.0]]]}},{"type":"Feature","properties":{"ss":1.5,"category":"Very High","color":"#c1272d"},"geometry":{"type":"Polygon","coordinates":[[[-157.0,55.0],[-155.0,55.0],[-155.0,57.0],[-157.0,57.0],[-157.0,55.0]]]}},{"type":"Feature","properties":{"ss":1.7,"category":"Very High","color":"#c1272d"},"geometry":{"type":"Polygon","coordinates":[[[-155.0,55.0],[-153.0,55.0],[-153.0,57.0],[-155.0,57.0],[-155.0,55.0]]]}},{"type":"Feature","properties":{"ss":1.5,"category":"Very High","color":"#c1272d"},"geometry":{"type":"Polygon","coordinates":[[[-153.0,55.0],[-151.0,55.0],[-151.0,57.0],[-153.0,57.0],[-153.0,55.0]]]}},{"type":"Feature","properties":{"ss":1.5,"category":"Very High","color":"#c1272d"},"geometry":{"type":"Polygon","coordinates":[[[-151.0,55.0],[-149.0,55.0],[-149.0,57.0],[-151.0,57.0],[-151.0,55.0]]]}},{"type":"Feature","properties":{"ss":1.5,"category":"Very High","color":"#c1272d"},"geometry":{"type":"Polygon","coordinates":[[[-149.0,55.0],[-147.0,55.0],[-147.0,57.0],[-149.0,57.0],[-149.0,55.0]]]}},{"type":"Feature","properties":{"ss":1.5,"category":"Very High","color":"#c1272d"},"geometry":{"type":"Polygon","coordinates":[[[-147.0,55.0],[-145.0,55.0],[-145.0,57.0],[-147.0,57.0],[-147.0,55.0]]]}},{"type":"Feature","properties":{"ss":1.5,"category":"Very High","color":"#c1272d"},"geometry":{"type":"Polygon","coordinates":[[[-145.0,55.0],[-143.0,55.0],[-143.0,57.0],[-145.0,57.0],[-145.0,55.0]]]}},{"type":"Feature","properties":{"ss":1.5,"category":"Very High","color":"#c1272d"},"geometry":{"type":"Polygon","coordinates":[[[-143.0,55.0],[-141.0,55.0],[-141.0,57.0],[-143.0,57.0],[-143.0,55.0]]]}},{"type":"Feature","properties":{"ss":1.5,"category":"Very High","color":"#c1272d"},"geometry":{"type":"Polygon","coordinates":[[[-141.0,55.0],[-139.0,55.0],[-139.0,57.0],[-141.0,57.0],[-141.0,55.0]]]}},{"type":"Feature","properties":{"ss":1.5,"category":"Very High","color":"#c1272d"},"geometry":{"type":"Polygon","coordinates":[[[-139.0,55.0],[-137.0,55.0],[-137.0,57.0],[-139.0,57.0],[-139.0,55.0]]]}},{"type":"Feature","properties":{"ss":1.5,"category":"Very High","color":"#c1272d"},"geometry":{"type":"Polygon","coordinates":[[[-137.0,55.0],[-135.0,55.0],[-135.0,57.0],[-137.0,57.0],[-137.0,55.0]]]}},{"type":"Feature","properties":{"ss":0.62,"category":"High","color":"#d2691e"},"geometry":{"type":"Polygon","coordinates":[[[-135.0,55.0],[-133.0,55.0],[-133.0,57.0],[-135.0,57.0],[-135.0,55.0]]]}},{"type":"Feature","properties":{"ss":0.24,"category":"Low","color":"#2e7d32"},"geometry":{"type":"Polygon","coordinates":[[[-133.0,55.0],[-131.0,55.0],[-131.0,57.0],[-133.0,57.0],[-133.0,55.0]]]}},{"type":"Feature","properties":{"ss":0.12,"category":"Low","color":"#2e7d32"},"geometry":{"type":"Polygon","coordinates":[[[-131.0,55.0],[-129.0,55.0],[-129.0,57.0],[-131.0,57.0],[-131.0,55.0]]]}},{"type":"Feature","properties":{"ss":0.13,"category":"Low","color":"#2e7d32"},"geometry":{"type":"Polygon","coordinates":[[[-171.0,57.0],[-169.0,57.0],[-169.0,59.0],[-171.0,59.0],[-171.0,57.0]]]}},{"type":"Feature","properties":{"ss":0.16,"category":"Low","color":"#2e7d32"},"geometry":{"type":"Polygon","coordinates":[[[-169.0,57.0],[-167.0,57.0],[-167.0,59.0],[-169.0,59.0],[-169.0,57.0]]]}},{"type":"Feature","properties":{"ss":0.22,"category":"Low","color":"#2e7d32"},"geometry":{"type":"Polygon","coordinates":[[[-167.0,57.0],[-165.0,57.0],[-165.0,59.0],[-167.0,59.0],[-167.0,57.0]]]}},{"type":"Feature","properties":{"ss":0.22,"category":"Low","color":"#2e7d32"},"geometry":{"type":"Polygon","coordinates":[[[-165.0,57.0],[-163.0,57.0],[-163.0,59.0],[-165.0,59.0],[-165.0,57.0]]]}},{"type":"Feature","properties":{"ss":0.26,"category":"Moderate","color":"#b58900"},"geometry":{"type":"Polygon","coordinates":[[[-163.0,57.0],[-161.0,57.0],[-161.0,59.0],[-163.0,59.0],[-163.0,57.0]]]}},{"type":"Feature","properties":{"ss":0.33,"category":"Moderate","color":"#b58900"},"geometry":{"type":"Polygon","coordinates":[[[-161.0,57.0],[-159.0,57.0],[-159.0,59.0],[-161.0,59.0],[-161.0,57.0]]]}},{"type":"Feature","properties":{"ss":0.71,"category":"High","color":"#d2691e"},"geometry":{"type":"Polygon","coordinates":[[[-159.0,57.0],[-157.0,57.0],[-157.0,59.0],[-159.0,59.0],[-159.0,57.0]]]}},{"type":"Feature","properties":{"ss":1.2,"category":"Very High","color":"#c1272d"},"geometry":{"type":"Polygon","coordinates":[[[-157.0,57.0],[-155.0,57.0],[-155.0,59.0],[-157.0,59.0],[-157.0,57.0]]]}},{"type":"Feature","properties":{"ss":1.5,"category":"Very High","color":"#c1272d"},"geometry":{"type":"Polygon","coordinates":[[[-155.0,57.0],[-153.0,57.0],[-153.0,59.0],[-155.0,59.0],[-155.0,57.0]]]}},{"type":"Feature","properties":{"ss":1.5,"category":"Very High","color":"#c1272d"},"geometry":{"type":"Polygon","coordinates":[[[-153.0,57.0],[-151.0,57.0],[-151.0,59.0],[-153.0,59.0],[-153.0,57.0]]]}},{"type":"Feature","properties":{"ss":1.62,"category":"Very High","color":"#c1272d"},"geometry":{"type":"Polygon","coordinates":[[[-151.0,57.0],[-149.0,57.0],[-149.0,59.0],[-151.0,59.0],[-151.0,57.0]]]}},{"type":"Feature","properties":{"ss":1.5,"category":"Very High","color":"#c1272d"},"geometry":{"type":"Polygon","coordinates":[[[-149.0,57.0],[-147.0,57.0],[-147.0,59.0],[-149.0,59.0],[-149.0,57.0]]]}},{"type":"Feature","properties":{"ss":1.5,"category":"Very High","color":"#c1272d"},"geometry":{"type":"Polygon","coordinates":[[[-147.0,57.0],[-145.0,57.0],[-145.0,59.0],[-147.0,59.0],[-147.0,57.0]]]}},{"type":"Feature","properties":{"ss":1.5,"category":"Very High","color":"#c1272d"},"geometry":{"type":"Polygon","coordinates":[[[-145.0,57.0],[-143.0,57.0],[-143.0,59.0],[-145.0,59.0],[-145.0,57.0]]]}},{"type":"Feature","properties":{"ss":1.5,"category":"Very High","color":"#c1272d"},"geometry":{"type":"Polygon","coordinates":[[[-143.0,57.0],[-141.0,57.0],[-141.0,59.0],[-143.0,59.0],[-143.0,57.0]]]}},{"type":"Feature","properties":{"ss":1.5,"category":"Very High","color":"#c1272d"},"geometry":{"type":"Polygon","coordinates":[[[-141.0,57.0],[-139.0,57.0],[-139.0,59.0],[-141.0,59.0],[-141.0,57.0]]]}},{"type":"Feature","properties":{"ss":2.56,"category":"Very High","color":"#c1272d"},"geometry":{"type":"Polygon","coordinates":[[[-139.0,57.0],[-137.0,57.0],[-137.0,59.0],[-139.0,59.0],[-139.0,57.0]]]}},{"type":"Feature","properties":{"ss":1.16,"category":"Very High","color":"#c1272d"},"geometry":{"type":"Polygon","coordinates":[[[-137.0,57.0],[-135.0,57.0],[-135.0,59.0],[-137.0,59.0],[-137.0,57.0]]]}},{"type":"Feature","properties":{"ss":0.4,"category":"Moderate","color":"#b58900"},"geometry":{"type":"Polygon","coordinates":[[[-135.0,57.0],[-133.0,57.0],[-133.0,59.0],[-135.0,59.0],[-135.0,57.0]]]}},{"type":"Feature","properties":{"ss":0.19,"category":"Low","color":"#2e7d32"},"geometry":{"type":"Polygon","coordinates":[[[-133.0,57.0],[-131.0,57.0],[-131.0,59.0],[-133.0,59.0],[-133.0,57.0]]]}},{"type":"Feature","properties":{"ss":0.073,"category":"Low","color":"#2e7d32"},"geometry":{"type":"Polygon","coordinates":[[[-131.0,57.0],[-129.0,57.0],[-129.0,59.0],[-131.0,59.0],[-131.0,57.0]]]}},{"type":"Feature","properties":{"ss":0.1,"category":"Low","color":"#2e7d32"},"geometry":{"type":"Polygon","coordinates":[[[-171.0,59.0],[-169.0,59.0],[-169.0,61.0],[-171.0,61.0],[-171.0,59.0]]]}},{"type":"Feature","properties":{"ss":0.092,"category":"Low","color":"#2e7d32"},"geometry":{"type":"Polygon","coordinates":[[[-169.0,59.0],[-167.0,59.0],[-167.0,61.0],[-169.0,61.0],[-169.0,59.0]]]}},{"type":"Feature","properties":{"ss":0.094,"category":"Low","color":"#2e7d32"},"geometry":{"type":"Polygon","coordinates":[[[-167.0,59.0],[-165.0,59.0],[-165.0,61.0],[-167.0,61.0],[-167.0,59.0]]]}},{"type":"Feature","properties":{"ss":0.12,"category":"Low","color":"#2e7d32"},"geometry":{"type":"Polygon","coordinates":[[[-165.0,59.0],[-163.0,59.0],[-163.0,61.0],[-165.0,61.0],[-165.0,59.0]]]}},{"type":"Feature","properties":{"ss":0.15,"category":"Low","color":"#2e7d32"},"geometry":{"type":"Polygon","coordinates":[[[-163.0,59.0],[-161.0,59.0],[-161.0,61.0],[-163.0,61.0],[-163.0,59.0]]]}},{"type":"Feature","properties":{"ss":0.19,"category":"Low","color":"#2e7d32"},"geometry":{"type":"Polygon","coordinates":[[[-161.0,59.0],[-159.0,59.0],[-159.0,61.0],[-161.0,61.0],[-161.0,59.0]]]}},{"type":"Feature","properties":{"ss":0.24,"category":"Low","color":"#2e7d32"},"geometry":{"type":"Polygon","coordinates":[[[-159.0,59.0],[-157.0,59.0],[-157.0,61.0],[-159.0,61.0],[-159.0,59.0]]]}},{"type":"Feature","properties":{"ss":0.48,"category":"Moderate","color":"#b58900"},"geometry":{"type":"Polygon","coordinates":[[[-157.0,59.0],[-155.0,59.0],[-155.0,61.0],[-157.0,61.0],[-157.0,59.0]]]}},{"type":"Feature","properties":{"ss":0.98,"category":"High","color":"#d2691e"},"geometry":{"type":"Polygon","coordinates":[[[-155.0,59.0],[-153.0,59.0],[-153.0,61.0],[-155.0,61.0],[-155.0,59.0]]]}},{"type":"Feature","properties":{"ss":1.47,"category":"Very High","color":"#c1272d"},"geometry":{"type":"Polygon","coordinates":[[[-153.0,59.0],[-151.0,59.0],[-151.0,61.0],[-153.0,61.0],[-153.0,59.0]]]}},{"type":"Feature","properties":{"ss":1.5,"category":"Very High","color":"#c1272d"},"geometry":{"type":"Polygon","coordinates":[[[-151.0,59.0],[-149.0,59.0],[-149.0,61.0],[-151.0,61.0],[-151.0,59.0]]]}},{"type":"Feature","properties":{"ss":1.6,"category":"Very High","color":"#c1272d"},"geometry":{"type":"Polygon","coordinates":[[[-149.0,59.0],[-147.0,59.0],[-147.0,61.0],[-149.0,61.0],[-149.0,59.0]]]}},{"type":"Feature","properties":{"ss":1.74,"category":"Very High","color":"#c1272d"},"geometry":{"type":"Polygon","coordinates":[[[-147.0,59.0],[-145.0,59.0],[-145.0,61.0],[-147.0,61.0],[-147.0,59.0]]]}},{"type":"Feature","properties":{"ss":1.78,"category":"Very High","color":"#c1272d"},"geometry":{"type":"Polygon","coordinates":[[[-145.0,59.0],[-143.0,59.0],[-143.0,61.0],[-145.0,61.0],[-145.0,59.0]]]}},{"type":"Feature","properties":{"ss":1.78,"category":"Very High","color":"#c1272d"},"geometry":{"type":"Polygon","coordinates":[[[-143.0,59.0],[-141.0,59.0],[-141.0,61.0],[-143.0,61.0],[-143.0,59.0]]]}},{"type":"Feature","properties":{"ss":1.78,"category":"Very High","color":"#c1272d"},"geometry":{"type":"Polygon","coordinates":[[[-141.0,59.0],[-139.0,59.0],[-139.0,61.0],[-141.0,61.0],[-141.0,59.0]]]}},{"type":"Feature","properties":{"ss":0.88,"category":"High","color":"#d2691e"},"geometry":{"type":"Polygon","coordinates":[[[-139.0,59.0],[-137.0,59.0],[-137.0,61.0],[-139.0,61.0],[-139.0,59.0]]]}},{"type":"Feature","properties":{"ss":0.72,"category":"High","color":"#d2691e"},"geometry":{"type":"Polygon","coordinates":[[[-137.0,59.0],[-135.0,59.0],[-135.0,61.0],[-137.0,61.0],[-137.0,59.0]]]}},{"type":"Feature","properties":{"ss":0.36,"category":"Moderate","color":"#b58900"},"geometry":{"type":"Polygon","coordinates":[[[-135.0,59.0],[-133.0,59.0],[-133.0,61.0],[-135.0,61.0],[-135.0,59.0]]]}},{"type":"Feature","properties":{"ss":0.15,"category":"Low","color":"#2e7d32"},"geometry":{"type":"Polygon","coordinates":[[[-133.0,59.0],[-131.0,59.0],[-131.0,61.0],[-133.0,61.0],[-133.0,59.0]]]}},{"type":"Feature","properties":{"ss":0.11,"category":"Low","color":"#2e7d32"},"geometry":{"type":"Polygon","coordinates":[[[-131.0,59.0],[-129.0,59.0],[-129.0,61.0],[-131.0,61.0],[-131.0,59.0]]]}},{"type":"Feature","properties":{"ss":0.26,"category":"Moderate","color":"#b58900"},"geometry":{"type":"Polygon","coordinates":[[[-171.0,61.0],[-169.0,61.0],[-169.0,63.0],[-171.0,63.0],[-171.0,61.0]]]}},{"type":"Feature","properties":{"ss":0.21,"category":"Low","color":"#2e7d32"},"geometry":{"type":"Polygon","coordinates":[[[-169.0,61.0],[-167.0,61.0],[-167.0,63.0],[-169.0,63.0],[-169.0,61.0]]]}},{"type":"Feature","properties":{"ss":0.19,"category":"Low","color":"#2e7d32"},"geometry":{"type":"Polygon","coordinates":[[[-167.0,61.0],[-165.0,61.0],[-165.0,63.0],[-167.0,63.0],[-167.0,61.0]]]}},{"type":"Feature","properties":{"ss":0.53,"category":"High","color":"#d2691e"},"geometry":{"type":"Polygon","coordinates":[[[-165.0,61.0],[-163.0,61.0],[-163.0,63.0],[-165.0,63.0],[-165.0,61.0]]]}},{"type":"Feature","properties":{"ss":0.49,"category":"Moderate","color":"#b58900"},"geometry":{"type":"Polygon","coordinates":[[[-163.0,61.0],[-161.0,61.0],[-161.0,63.0],[-163.0,63.0],[-163.0,61.0]]]}},{"type":"Feature","properties":{"ss":0.48,"category":"Moderate","color":"#b58900"},"geometry":{"type":"Polygon","coordinates":[[[-161.0,61.0],[-159.0,61.0],[-159.0,63.0],[-161.0,63.0],[-161.0,61.0]]]}},{"type":"Feature","properties":{"ss":0.65,"category":"High","color":"#d2691e"},"geometry":{"type":"Polygon","coordinates":[[[-159.0,61.0],[-157.0,61.0],[-157.0,63.0],[-159.0,63.0],[-159.0,61.0]]]}},{"type":"Feature","properties":{"ss":0.61,"category":"High","color":"#d2691e"},"geometry":{"type":"Polygon","coordinates":[[[-157.0,61.0],[-155.0,61.0],[-155.0,63.0],[-157.0,63.0],[-157.0,61.0]]]}},{"type":"Feature","properties":{"ss":0.76,"category":"High","color":"#d2691e"},"geometry":{"type":"Polygon","coordinates":[[[-155.0,61.0],[-153.0,61.0],[-153.0,63.0],[-155.0,63.0],[-155.0,61.0]]]}},{"type":"Feature","properties":{"ss":1.27,"category":"Very High","color":"#c1272d"},"geometry":{"type":"Polygon","coordinates":[[[-153.0,61.0],[-151.0,61.0],[-151.0,63.0],[-153.0,63.0],[-153.0,61.0]]]}},{"type":"Feature","properties":{"ss":1.5,"category":"Very High","color":"#c1272d"},"geometry":{"type":"Polygon","coordinates":[[[-151.0,61.0],[-149.0,61.0],[-149.0,63.0],[-151.0,63.0],[-151.0,61.0]]]}},{"type":"Feature","properties":{"ss":1.5,"category":"Very High","color":"#c1272d"},"geometry":{"type":"Polygon","coordinates":[[[-149.0,61.0],[-147.0,61.0],[-147.0,63.0],[-149.0,63.0],[-149.0,61.0]]]}},{"type":"Feature","properties":{"ss":1.13,"category":"Very High","color":"#c1272d"},"geometry":{"type":"Polygon","coordinates":[[[-147.0,61.0],[-145.0,61.0],[-145.0,63.0],[-147.0,63.0],[-147.0,61.0]]]}},{"type":"Feature","properties":{"ss":0.81,"category":"High","color":"#d2691e"},"geometry":{"type":"Polygon","coordinates":[[[-145.0,61.0],[-143.0,61.0],[-143.0,63.0],[-145.0,63.0],[-145.0,61.0]]]}},{"type":"Feature","properties":{"ss":1.39,"category":"Very High","color":"#c1272d"},"geometry":{"type":"Polygon","coordinates":[[[-143.0,61.0],[-141.0,61.0],[-141.0,63.0],[-143.0,63.0],[-143.0,61.0]]]}},{"type":"Feature","properties":{"ss":0.97,"category":"High","color":"#d2691e"},"geometry":{"type":"Polygon","coordinates":[[[-141.0,61.0],[-139.0,61.0],[-139.0,63.0],[-141.0,63.0],[-141.0,61.0]]]}},{"type":"Feature","properties":{"ss":0.47,"category":"Moderate","color":"#b58900"},"geometry":{"type":"Polygon","coordinates":[[[-139.0,61.0],[-137.0,61.0],[-137.0,63.0],[-139.0,63.0],[-139.0,61.0]]]}},{"type":"Feature","properties":{"ss":0.41,"category":"Moderate","color":"#b58900"},"geometry":{"type":"Polygon","coordinates":[[[-137.0,61.0],[-135.0,61.0],[-135.0,63.0],[-137.0,63.0],[-137.0,61.0]]]}},{"type":"Feature","properties":{"ss":0.34,"category":"Moderate","color":"#b58900"},"geometry":{"type":"Polygon","coordinates":[[[-135.0,61.0],[-133.0,61.0],[-133.0,63.0],[-135.0,63.0],[-135.0,61.0]]]}},{"type":"Feature","properties":{"ss":0.37,"category":"Moderate","color":"#b58900"},"geometry":{"type":"Polygon","coordinates":[[[-133.0,61.0],[-131.0,61.0],[-131.0,63.0],[-133.0,63.0],[-133.0,61.0]]]}},{"type":"Feature","properties":{"ss":0.36,"category":"Moderate","color":"#b58900"},"geometry":{"type":"Polygon","coordinates":[[[-131.0,61.0],[-129.0,61.0],[-129.0,63.0],[-131.0,63.0],[-131.0,61.0]]]}},{"type":"Feature","properties":{"ss":0.19,"category":"Low","color":"#2e7d32"},"geometry":{"type":"Polygon","coordinates":[[[-171.0,63.0],[-169.0,63.0],[-169.0,65.0],[-171.0,65.0],[-171.0,63.0]]]}},{"type":"Feature","properties":{"ss":0.21,"category":"Low","color":"#2e7d32"},"geometry":{"type":"Polygon","coordinates":[[[-169.0,63.0],[-167.0,63.0],[-167.0,65.0],[-169.0,65.0],[-169.0,63.0]]]}},{"type":"Feature","properties":{"ss":0.35,"category":"Moderate","color":"#b58900"},"geometry":{"type":"Polygon","coordinates":[[[-167.0,63.0],[-165.0,63.0],[-165.0,65.0],[-167.0,65.0],[-167.0,63.0]]]}},{"type":"Feature","properties":{"ss":0.52,"category":"High","color":"#d2691e"},"geometry":{"type":"Polygon","coordinates":[[[-165.0,63.0],[-163.0,63.0],[-163.0,65.0],[-165.0,65.0],[-165.0,63.0]]]}},{"type":"Feature","properties":{"ss":0.51,"category":"High","color":"#d2691e"},"geometry":{"type":"Polygon","coordinates":[[[-163.0,63.0],[-161.0,63.0],[-161.0,65.0],[-163.0,65.0],[-163.0,63.0]]]}},{"type":"Feature","properties":{"ss":0.41,"category":"Moderate","color":"#b58900"},"geometry":{"type":"Polygon","coordinates":[[[-161.0,63.0],[-159.0,63.0],[-159.0,65.0],[-161.0,65.0],[-161.0,63.0]]]}},{"type":"Feature","properties":{"ss":0.43,"category":"Moderate","color":"#b58900"},"geometry":{"type":"Polygon","coordinates":[[[-159.0,63.0],[-157.0,63.0],[-157.0,65.0],[-159.0,65.0],[-159.0,63.0]]]}},{"type":"Feature","properties":{"ss":0.36,"category":"Moderate","color":"#b58900"},"geometry":{"type":"Polygon","coordinates":[[[-157.0,63.0],[-155.0,63.0],[-155.0,65.0],[-157.0,65.0],[-157.0,63.0]]]}},{"type":"Feature","properties":{"ss":0.63,"category":"High","color":"#d2691e"},"geometry":{"type":"Polygon","coordinates":[[[-155.0,63.0],[-153.0,63.0],[-153.0,65.0],[-155.0,65.0],[-155.0,63.0]]]}},{"type":"Feature","properties":{"ss":1.09,"category":"Very High","color":"#c1272d"},"geometry":{"type":"Polygon","coordinates":[[[-153.0,63.0],[-151.0,63.0],[-151.0,65.0],[-153.0,65.0],[-153.0,63.0]]]}},{"type":"Feature","properties":{"ss":1.14,"category":"Very High","color":"#c1272d"},"geometry":{"type":"Polygon","coordinates":[[[-151.0,63.0],[-149.0,63.0],[-149.0,65.0],[-151.0,65.0],[-151.0,63.0]]]}},{"type":"Feature","properties":{"ss":1.07,"category":"Very High","color":"#c1272d"},"geometry":{"type":"Polygon","coordinates":[[[-149.0,63.0],[-147.0,63.0],[-147.0,65.0],[-149.0,65.0],[-149.0,63.0]]]}},{"type":"Feature","properties":{"ss":0.81,"category":"High","color":"#d2691e"},"geometry":{"type":"Polygon","coordinates":[[[-147.0,63.0],[-145.0,63.0],[-145.0,65.0],[-147.0,65.0],[-147.0,63.0]]]}},{"type":"Feature","properties":{"ss":0.48,"category":"Moderate","color":"#b58900"},"geometry":{"type":"Polygon","coordinates":[[[-145.0,63.0],[-143.0,63.0],[-143.0,65.0],[-145.0,65.0],[-145.0,63.0]]]}},{"type":"Feature","properties":{"ss":0.28,"category":"Moderate","color":"#b58900"},"geometry":{"type":"Polygon","coordinates":[[[-143.0,63.0],[-141.0,63.0],[-141.0,65.0],[-143.0,65.0],[-143.0,63.0]]]}},{"type":"Feature","properties":{"ss":0.29,"category":"Moderate","color":"#b58900"},"geometry":{"type":"Polygon","coordinates":[[[-141.0,63.0],[-139.0,63.0],[-139.0,65.0],[-141.0,65.0],[-141.0,63.0]]]}},{"type":"Feature","properties":{"ss":0.5,"category":"High","color":"#d2691e"},"geometry":{"type":"Polygon","coordinates":[[[-139.0,63.0],[-137.0,63.0],[-137.0,65.0],[-139.0,65.0],[-139.0,63.0]]]}},{"type":"Feature","properties":{"ss":0.37,"category":"Moderate","color":"#b58900"},"geometry":{"type":"Polygon","coordinates":[[[-137.0,63.0],[-135.0,63.0],[-135.0,65.0],[-137.0,65.0],[-137.0,63.0]]]}},{"type":"Feature","properties":{"ss":0.46,"category":"Moderate","color":"#b58900"},"geometry":{"type":"Polygon","coordinates":[[[-135.0,63.0],[-133.0,63.0],[-133.0,65.0],[-135.0,65.0],[-135.0,63.0]]]}},{"type":"Feature","properties":{"ss":0.57,"category":"High","color":"#d2691e"},"geometry":{"type":"Polygon","coordinates":[[[-133.0,63.0],[-131.0,63.0],[-131.0,65.0],[-133.0,65.0],[-133.0,63.0]]]}},{"type":"Feature","properties":{"ss":0.58,"category":"High","color":"#d2691e"},"geometry":{"type":"Polygon","coordinates":[[[-131.0,63.0],[-129.0,63.0],[-129.0,65.0],[-131.0,65.0],[-131.0,63.0]]]}},{"type":"Feature","properties":{"ss":0.36,"category":"Moderate","color":"#b58900"},"geometry":{"type":"Polygon","coordinates":[[[-171.0,65.0],[-169.0,65.0],[-169.0,67.0],[-171.0,67.0],[-171.0,65.0]]]}},{"type":"Feature","properties":{"ss":0.54,"category":"High","color":"#d2691e"},"geometry":{"type":"Polygon","coordinates":[[[-169.0,65.0],[-167.0,65.0],[-167.0,67.0],[-169.0,67.0],[-169.0,65.0]]]}},{"type":"Feature","properties":{"ss":0.47,"category":"Moderate","color":"#b58900"},"geometry":{"type":"Polygon","coordinates":[[[-167.0,65.0],[-165.0,65.0],[-165.0,67.0],[-167.0,67.0],[-167.0,65.0]]]}},{"type":"Feature","properties":{"ss":0.39,"category":"Moderate","color":"#b58900"},"geometry":{"type":"Polygon","coordinates":[[[-165.0,65.0],[-163.0,65.0],[-163.0,67.0],[-165.0,67.0],[-165.0,65.0]]]}},{"type":"Feature","properties":{"ss":0.42,"category":"Moderate","color":"#b58900"},"geometry":{"type":"Polygon","coordinates":[[[-163.0,65.0],[-161.0,65.0],[-161.0,67.0],[-163.0,67.0],[-163.0,65.0]]]}},{"type":"Feature","properties":{"ss":0.3,"category":"Moderate","color":"#b58900"},"geometry":{"type":"Polygon","coordinates":[[[-161.0,65.0],[-159.0,65.0],[-159.0,67.0],[-161.0,67.0],[-161.0,65.0]]]}},{"type":"Feature","properties":{"ss":0.51,"category":"High","color":"#d2691e"},"geometry":{"type":"Polygon","coordinates":[[[-159.0,65.0],[-157.0,65.0],[-157.0,67.0],[-159.0,67.0],[-159.0,65.0]]]}},{"type":"Feature","properties":{"ss":0.68,"category":"High","color":"#d2691e"},"geometry":{"type":"Polygon","coordinates":[[[-157.0,65.0],[-155.0,65.0],[-155.0,67.0],[-157.0,67.0],[-157.0,65.0]]]}},{"type":"Feature","properties":{"ss":0.55,"category":"High","color":"#d2691e"},"geometry":{"type":"Polygon","coordinates":[[[-155.0,65.0],[-153.0,65.0],[-153.0,67.0],[-155.0,67.0],[-155.0,65.0]]]}},{"type":"Feature","properties":{"ss":0.79,"category":"High","color":"#d2691e"},"geometry":{"type":"Polygon","coordinates":[[[-153.0,65.0],[-151.0,65.0],[-151.0,67.0],[-153.0,67.0],[-153.0,65.0]]]}},{"type":"Feature","properties":{"ss":1.0,"category":"Very High","color":"#c1272d"},"geometry":{"type":"Polygon","coordinates":[[[-151.0,65.0],[-149.0,65.0],[-149.0,67.0],[-151.0,67.0],[-151.0,65.0]]]}},{"type":"Feature","properties":{"ss":0.86,"category":"High","color":"#d2691e"},"geometry":{"type":"Polygon","coordinates":[[[-149.0,65.0],[-147.0,65.0],[-147.0,67.0],[-149.0,67.0],[-149.0,65.0]]]}},{"type":"Feature","properties":{"ss":0.57,"category":"High","color":"#d2691e"},"geometry":{"type":"Polygon","coordinates":[[[-147.0,65.0],[-145.0,65.0],[-145.0,67.0],[-147.0,67.0],[-147.0,65.0]]]}},{"type":"Feature","properties":{"ss":0.4,"category":"Moderate","color":"#b58900"},"geometry":{"type":"Polygon","coordinates":[[[-145.0,65.0],[-143.0,65.0],[-143.0,67.0],[-145.0,67.0],[-145.0,65.0]]]}},{"type":"Feature","properties":{"ss":0.45,"category":"Moderate","color":"#b58900"},"geometry":{"type":"Polygon","coordinates":[[[-143.0,65.0],[-141.0,65.0],[-141.0,67.0],[-143.0,67.0],[-143.0,65.0]]]}},{"type":"Feature","properties":{"ss":0.3,"category":"Moderate","color":"#b58900"},"geometry":{"type":"Polygon","coordinates":[[[-141.0,65.0],[-139.0,65.0],[-139.0,67.0],[-141.0,67.0],[-141.0,65.0]]]}},{"type":"Feature","properties":{"ss":0.37,"category":"Moderate","color":"#b58900"},"geometry":{"type":"Polygon","coordinates":[[[-139.0,65.0],[-137.0,65.0],[-137.0,67.0],[-139.0,67.0],[-139.0,65.0]]]}},{"type":"Feature","properties":{"ss":0.84,"category":"High","color":"#d2691e"},"geometry":{"type":"Polygon","coordinates":[[[-137.0,65.0],[-135.0,65.0],[-135.0,67.0],[-137.0,67.0],[-137.0,65.0]]]}},{"type":"Feature","properties":{"ss":0.94,"category":"High","color":"#d2691e"},"geometry":{"type":"Polygon","coordinates":[[[-135.0,65.0],[-133.0,65.0],[-133.0,67.0],[-135.0,67.0],[-135.0,65.0]]]}},{"type":"Feature","properties":{"ss":0.54,"category":"High","color":"#d2691e"},"geometry":{"type":"Polygon","coordinates":[[[-133.0,65.0],[-131.0,65.0],[-131.0,67.0],[-133.0,67.0],[-133.0,65.0]]]}},{"type":"Feature","properties":{"ss":0.26,"category":"Moderate","color":"#b58900"},"geometry":{"type":"Polygon","coordinates":[[[-131.0,65.0],[-129.0,65.0],[-129.0,67.0],[-131.0,67.0],[-131.0,65.0]]]}},{"type":"Feature","properties":{"ss":0.24,"category":"Low","color":"#2e7d32"},"geometry":{"type":"Polygon","coordinates":[[[-171.0,67.0],[-169.0,67.0],[-169.0,69.0],[-171.0,69.0],[-171.0,67.0]]]}},{"type":"Feature","properties":{"ss":0.2,"category":"Low","color":"#2e7d32"},"geometry":{"type":"Polygon","coordinates":[[[-169.0,67.0],[-167.0,67.0],[-167.0,69.0],[-169.0,69.0],[-169.0,67.0]]]}},{"type":"Feature","properties":{"ss":0.4,"category":"Moderate","color":"#b58900"},"geometry":{"type":"Polygon","coordinates":[[[-167.0,67.0],[-165.0,67.0],[-165.0,69.0],[-167.0,69.0],[-167.0,67.0]]]}},{"type":"Feature","properties":{"ss":0.49,"category":"Moderate","color":"#b58900"},"geometry":{"type":"Polygon","coordinates":[[[-165.0,67.0],[-163.0,67.0],[-163.0,69.0],[-165.0,69.0],[-165.0,67.0]]]}},{"type":"Feature","properties":{"ss":0.72,"category":"High","color":"#d2691e"},"geometry":{"type":"Polygon","coordinates":[[[-163.0,67.0],[-161.0,67.0],[-161.0,69.0],[-163.0,69.0],[-163.0,67.0]]]}},{"type":"Feature","properties":{"ss":0.83,"category":"High","color":"#d2691e"},"geometry":{"type":"Polygon","coordinates":[[[-161.0,67.0],[-159.0,67.0],[-159.0,69.0],[-161.0,69.0],[-161.0,67.0]]]}},{"type":"Feature","properties":{"ss":0.74,"category":"High","color":"#d2691e"},"geometry":{"type":"Polygon","coordinates":[[[-159.0,67.0],[-157.0,67.0],[-157.0,69.0],[-159.0,69.0],[-159.0,67.0]]]}},{"type":"Feature","properties":{"ss":0.57,"category":"High","color":"#d2691e"},"geometry":{"type":"Polygon","coordinates":[[[-157.0,67.0],[-155.0,67.0],[-155.0,69.0],[-157.0,69.0],[-157.0,67.0]]]}},{"type":"Feature","properties":{"ss":0.34,"category":"Moderate","color":"#b58900"},"geometry":{"type":"Polygon","coordinates":[[[-155.0,67.0],[-153.0,67.0],[-153.0,69.0],[-155.0,69.0],[-155.0,67.0]]]}},{"type":"Feature","properties":{"ss":0.39,"category":"Moderate","color":"#b58900"},"geometry":{"type":"Polygon","coordinates":[[[-153.0,67.0],[-151.0,67.0],[-151.0,69.0],[-153.0,69.0],[-153.0,67.0]]]}},{"type":"Feature","properties":{"ss":0.71,"category":"High","color":"#d2691e"},"geometry":{"type":"Polygon","coordinates":[[[-151.0,67.0],[-149.0,67.0],[-149.0,69.0],[-151.0,69.0],[-151.0,67.0]]]}},{"type":"Feature","properties":{"ss":0.87,"category":"High","color":"#d2691e"},"geometry":{"type":"Polygon","coordinates":[[[-149.0,67.0],[-147.0,67.0],[-147.0,69.0],[-149.0,69.0],[-149.0,67.0]]]}},{"type":"Feature","properties":{"ss":0.66,"category":"High","color":"#d2691e"},"geometry":{"type":"Polygon","coordinates":[[[-147.0,67.0],[-145.0,67.0],[-145.0,69.0],[-147.0,69.0],[-147.0,67.0]]]}},{"type":"Feature","properties":{"ss":0.34,"category":"Moderate","color":"#b58900"},"geometry":{"type":"Polygon","coordinates":[[[-145.0,67.0],[-143.0,67.0],[-143.0,69.0],[-145.0,69.0],[-145.0,67.0]]]}},{"type":"Feature","properties":{"ss":0.25,"category":"Moderate","color":"#b58900"},"geometry":{"type":"Polygon","coordinates":[[[-143.0,67.0],[-141.0,67.0],[-141.0,69.0],[-143.0,69.0],[-143.0,67.0]]]}},{"type":"Feature","properties":{"ss":0.26,"category":"Moderate","color":"#b58900"},"geometry":{"type":"Polygon","coordinates":[[[-141.0,67.0],[-139.0,67.0],[-139.0,69.0],[-141.0,69.0],[-141.0,67.0]]]}},{"type":"Feature","properties":{"ss":0.34,"category":"Moderate","color":"#b58900"},"geometry":{"type":"Polygon","coordinates":[[[-139.0,67.0],[-137.0,67.0],[-137.0,69.0],[-139.0,69.0],[-139.0,67.0]]]}},{"type":"Feature","properties":{"ss":0.41,"category":"Moderate","color":"#b58900"},"geometry":{"type":"Polygon","coordinates":[[[-137.0,67.0],[-135.0,67.0],[-135.0,69.0],[-137.0,69.0],[-137.0,67.0]]]}},{"type":"Feature","properties":{"ss":0.29,"category":"Moderate","color":"#b58900"},"geometry":{"type":"Polygon","coordinates":[[[-135.0,67.0],[-133.0,67.0],[-133.0,69.0],[-135.0,69.0],[-135.0,67.0]]]}},{"type":"Feature","properties":{"ss":0.14,"category":"Low","color":"#2e7d32"},"geometry":{"type":"Polygon","coordinates":[[[-133.0,67.0],[-131.0,67.0],[-131.0,69.0],[-133.0,69.0],[-133.0,67.0]]]}},{"type":"Feature","properties":{"ss":0.099,"category":"Low","color":"#2e7d32"},"geometry":{"type":"Polygon","coordinates":[[[-131.0,67.0],[-129.0,67.0],[-129.0,69.0],[-131.0,69.0],[-131.0,67.0]]]}},{"type":"Feature","properties":{"ss":0.014,"category":"Low","color":"#2e7d32"},"geometry":{"type":"Polygon","coordinates":[[[-171.0,69.0],[-169.0,69.0],[-169.0,71.0],[-171.0,71.0],[-171.0,69.0]]]}},{"type":"Feature","properties":{"ss":0.018,"category":"Low","color":"#2e7d32"},"geometry":{"type":"Polygon","coordinates":[[[-169.0,69.0],[-167.0,69.0],[-167.0,71.0],[-169.0,71.0],[-169.0,69.0]]]}},{"type":"Feature","properties":{"ss":0.033,"category":"Low","color":"#2e7d32"},"geometry":{"type":"Polygon","coordinates":[[[-167.0,69.0],[-165.0,69.0],[-165.0,71.0],[-167.0,71.0],[-167.0,69.0]]]}},{"type":"Feature","properties":{"ss":0.052,"category":"Low","color":"#2e7d32"},"geometry":{"type":"Polygon","coordinates":[[[-165.0,69.0],[-163.0,69.0],[-163.0,71.0],[-165.0,71.0],[-165.0,69.0]]]}},{"type":"Feature","properties":{"ss":0.075,"category":"Low","color":"#2e7d32"},"geometry":{"type":"Polygon","coordinates":[[[-163.0,69.0],[-161.0,69.0],[-161.0,71.0],[-163.0,71.0],[-163.0,69.0]]]}},{"type":"Feature","properties":{"ss":0.1,"category":"Low","color":"#2e7d32"},"geometry":{"type":"Polygon","coordinates":[[[-161.0,69.0],[-159.0,69.0],[-159.0,71.0],[-161.0,71.0],[-161.0,69.0]]]}},{"type":"Feature","properties":{"ss":0.12,"category":"Low","color":"#2e7d32"},"geometry":{"type":"Polygon","coordinates":[[[-159.0,69.0],[-157.0,69.0],[-157.0,71.0],[-159.0,71.0],[-159.0,69.0]]]}},{"type":"Feature","properties":{"ss":0.12,"category":"Low","color":"#2e7d32"},"geometry":{"type":"Polygon","coordinates":[[[-157.0,69.0],[-155.0,69.0],[-155.0,71.0],[-157.0,71.0],[-157.0,69.0]]]}},{"type":"Feature","properties":{"ss":0.095,"category":"Low","color":"#2e7d32"},"geometry":{"type":"Polygon","coordinates":[[[-155.0,69.0],[-153.0,69.0],[-153.0,71.0],[-155.0,71.0],[-155.0,69.0]]]}},{"type":"Feature","properties":{"ss":0.1,"category":"Low","color":"#2e7d32"},"geometry":{"type":"Polygon","coordinates":[[[-153.0,69.0],[-151.0,69.0],[-151.0,71.0],[-153.0,71.0],[-153.0,69.0]]]}},{"type":"Feature","properties":{"ss":0.21,"category":"Low","color":"#2e7d32"},"geometry":{"type":"Polygon","coordinates":[[[-151.0,69.0],[-149.0,69.0],[-149.0,71.0],[-151.0,71.0],[-151.0,69.0]]]}},{"type":"Feature","properties":{"ss":0.46,"category":"Moderate","color":"#b58900"},"geometry":{"type":"Polygon","coordinates":[[[-149.0,69.0],[-147.0,69.0],[-147.0,71.0],[-149.0,71.0],[-149.0,69.0]]]}},{"type":"Feature","properties":{"ss":0.46,"category":"Moderate","color":"#b58900"},"geometry":{"type":"Polygon","coordinates":[[[-147.0,69.0],[-145.0,69.0],[-145.0,71.0],[-147.0,71.0],[-147.0,69.0]]]}},{"type":"Feature","properties":{"ss":0.22,"category":"Low","color":"#2e7d32"},"geometry":{"type":"Polygon","coordinates":[[[-145.0,69.0],[-143.0,69.0],[-143.0,71.0],[-145.0,71.0],[-145.0,69.0]]]}},{"type":"Feature","properties":{"ss":0.097,"category":"Low","color":"#2e7d32"},"geometry":{"type":"Polygon","coordinates":[[[-143.0,69.0],[-141.0,69.0],[-141.0,71.0],[-143.0,71.0],[-143.0,69.0]]]}},{"type":"Feature","properties":{"ss":0.066,"category":"Low","color":"#2e7d32"},"geometry":{"type":"Polygon","coordinates":[[[-141.0,69.0],[-139.0,69.0],[-139.0,71.0],[-141.0,71.0],[-141.0,69.0]]]}},{"type":"Feature","properties":{"ss":0.09,"category":"Low","color":"#2e7d32"},"geometry":{"type":"Polygon","coordinates":[[[-139.0,69.0],[-137.0,69.0],[-137.0,71.0],[-139.0,71.0],[-139.0,69.0]]]}},{"type":"Feature","properties":{"ss":0.15,"category":"Low","color":"#2e7d32"},"geometry":{"type":"Polygon","coordinates":[[[-137.0,69.0],[-135.0,69.0],[-135.0,71.0],[-137.0,71.0],[-137.0,69.0]]]}},{"type":"Feature","properties":{"ss":0.33,"category":"Moderate","color":"#b58900"},"geometry":{"type":"Polygon","coordinates":[[[-135.0,69.0],[-133.0,69.0],[-133.0,71.0],[-135.0,71.0],[-135.0,69.0]]]}},{"type":"Feature","properties":{"ss":0.56,"category":"High","color":"#d2691e"},"geometry":{"type":"Polygon","coordinates":[[[-133.0,69.0],[-131.0,69.0],[-131.0,71.0],[-133.0,71.0],[-133.0,69.0]]]}},{"type":"Feature","properties":{"ss":0.46,"category":"Moderate","color":"#b58900"},"geometry":{"type":"Polygon","coordinates":[[[-131.0,69.0],[-129.0,69.0],[-129.0,71.0],[-131.0,71.0],[-131.0,69.0]]]}},{"type":"Feature","properties":{"ss":0.0072,"category":"Low","color":"#2e7d32"},"geometry":{"type":"Polygon","coordinates":[[[-161.0,18.0],[-160.0,18.0],[-160.0,19.0],[-161.0,19.0],[-161.0,18.0]]]}},{"type":"Feature","properties":{"ss":0.023,"category":"Low","color":"#2e7d32"},"geometry":{"type":"Polygon","coordinates":[[[-160.0,18.0],[-159.0,18.0],[-159.0,19.0],[-160.0,19.0],[-160.0,18.0]]]}},{"type":"Feature","properties":{"ss":0.044,"category":"Low","color":"#2e7d32"},"geometry":{"type":"Polygon","coordinates":[[[-159.0,18.0],[-158.0,18.0],[-158.0,19.0],[-159.0,19.0],[-159.0,18.0]]]}},{"type":"Feature","properties":{"ss":0.13,"category":"Low","color":"#2e7d32"},"geometry":{"type":"Polygon","coordinates":[[[-158.0,18.0],[-157.0,18.0],[-157.0,19.0],[-158.0,19.0],[-158.0,18.0]]]}},{"type":"Feature","properties":{"ss":0.37,"category":"Moderate","color":"#b58900"},"geometry":{"type":"Polygon","coordinates":[[[-157.0,18.0],[-156.0,18.0],[-156.0,19.0],[-157.0,19.0],[-157.0,18.0]]]}},{"type":"Feature","properties":{"ss":0.95,"category":"High","color":"#d2691e"},"geometry":{"type":"Polygon","coordinates":[[[-156.0,18.0],[-155.0,18.0],[-155.0,19.0],[-156.0,19.0],[-156.0,18.0]]]}},{"type":"Feature","properties":{"ss":0.44,"category":"Moderate","color":"#b58900"},"geometry":{"type":"Polygon","coordinates":[[[-155.0,18.0],[-154.0,18.0],[-154.0,19.0],[-155.0,19.0],[-155.0,18.0]]]}},{"type":"Feature","properties":{"ss":0.0086,"category":"Low","color":"#2e7d32"},"geometry":{"type":"Polygon","coordinates":[[[-161.0,19.0],[-160.0,19.0],[-160.0,20.0],[-161.0,20.0],[-161.0,19.0]]]}},{"type":"Feature","properties":{"ss":0.038,"category":"Low","color":"#2e7d32"},"geometry":{"type":"Polygon","coordinates":[[[-160.0,19.0],[-159.0,19.0],[-159.0,20.0],[-160.0,20.0],[-160.0,19.0]]]}},{"type":"Feature","properties":{"ss":0.082,"category":"Low","color":"#2e7d32"},"geometry":{"type":"Polygon","coordinates":[[[-159.0,19.0],[-158.0,19.0],[-158.0,20.0],[-159.0,20.0],[-159.0,19.0]]]}},{"type":"Feature","properties":{"ss":0.21,"category":"Low","color":"#2e7d32"},"geometry":{"type":"Polygon","coordinates":[[[-158.0,19.0],[-157.0,19.0],[-157.0,20.0],[-158.0,20.0],[-158.0,19.0]]]}},{"type":"Feature","properties":{"ss":0.88,"category":"High","color":"#d2691e"},"geometry":{"type":"Polygon","coordinates":[[[-157.0,19.0],[-156.0,19.0],[-156.0,20.0],[-157.0,20.0],[-157.0,19.0]]]}},{"type":"Feature","properties":{"ss":3.14,"category":"Very High","color":"#c1272d"},"geometry":{"type":"Polygon","coordinates":[[[-156.0,19.0],[-155.0,19.0],[-155.0,20.0],[-156.0,20.0],[-156.0,19.0]]]}},{"type":"Feature","properties":{"ss":1.5,"category":"Very High","color":"#c1272d"},"geometry":{"type":"Polygon","coordinates":[[[-155.0,19.0],[-154.0,19.0],[-154.0,20.0],[-155.0,20.0],[-155.0,19.0]]]}},{"type":"Feature","properties":{"ss":0.047,"category":"Low","color":"#2e7d32"},"geometry":{"type":"Polygon","coordinates":[[[-161.0,20.0],[-160.0,20.0],[-160.0,21.0],[-161.0,21.0],[-161.0,20.0]]]}},{"type":"Feature","properties":{"ss":0.098,"category":"Low","color":"#2e7d32"},"geometry":{"type":"Polygon","coordinates":[[[-160.0,20.0],[-159.0,20.0],[-159.0,21.0],[-160.0,21.0],[-160.0,20.0]]]}},{"type":"Feature","properties":{"ss":0.22,"category":"Low","color":"#2e7d32"},"geometry":{"type":"Polygon","coordinates":[[[-159.0,20.0],[-158.0,20.0],[-158.0,21.0],[-159.0,21.0],[-159.0,20.0]]]}},{"type":"Feature","properties":{"ss":0.5,"category":"High","color":"#d2691e"},"geometry":{"type":"Polygon","coordinates":[[[-158.0,20.0],[-157.0,20.0],[-157.0,21.0],[-158.0,21.0],[-158.0,20.0]]]}},{"type":"Feature","properties":{"ss":0.74,"category":"High","color":"#d2691e"},"geometry":{"type":"Polygon","coordinates":[[[-157.0,20.0],[-156.0,20.0],[-156.0,21.0],[-157.0,21.0],[-157.0,20.0]]]}},{"type":"Feature","properties":{"ss":0.76,"category":"High","color":"#d2691e"},"geometry":{"type":"Polygon","coordinates":[[[-156.0,20.0],[-155.0,20.0],[-155.0,21.0],[-156.0,21.0],[-156.0,20.0]]]}},{"type":"Feature","properties":{"ss":0.34,"category":"Moderate","color":"#b58900"},"geometry":{"type":"Polygon","coordinates":[[[-155.0,20.0],[-154.0,20.0],[-154.0,21.0],[-155.0,21.0],[-155.0,20.0]]]}},{"type":"Feature","properties":{"ss":0.13,"category":"Low","color":"#2e7d32"},"geometry":{"type":"Polygon","coordinates":[[[-161.0,21.0],[-160.0,21.0],[-160.0,22.0],[-161.0,22.0],[-161.0,21.0]]]}},{"type":"Feature","properties":{"ss":0.22,"category":"Low","color":"#2e7d32"},"geometry":{"type":"Polygon","coordinates":[[[-160.0,21.0],[-159.0,21.0],[-159.0,22.0],[-160.0,22.0],[-160.0,21.0]]]}},{"type":"Feature","properties":{"ss":0.41,"category":"Moderate","color":"#b58900"},"geometry":{"type":"Polygon","coordinates":[[[-159.0,21.0],[-158.0,21.0],[-158.0,22.0],[-159.0,22.0],[-159.0,21.0]]]}},{"type":"Feature","properties":{"ss":0.57,"category":"High","color":"#d2691e"},"geometry":{"type":"Polygon","coordinates":[[[-158.0,21.0],[-157.0,21.0],[-157.0,22.0],[-158.0,22.0],[-158.0,21.0]]]}},{"type":"Feature","properties":{"ss":0.64,"category":"High","color":"#d2691e"},"geometry":{"type":"Polygon","coordinates":[[[-157.0,21.0],[-156.0,21.0],[-156.0,22.0],[-157.0,22.0],[-157.0,21.0]]]}},{"type":"Feature","properties":{"ss":0.36,"category":"Moderate","color":"#b58900"},"geometry":{"type":"Polygon","coordinates":[[[-156.0,21.0],[-155.0,21.0],[-155.0,22.0],[-156.0,22.0],[-156.0,21.0]]]}},{"type":"Feature","properties":{"ss":0.14,"category":"Low","color":"#2e7d32"},"geometry":{"type":"Polygon","coordinates":[[[-155.0,21.0],[-154.0,21.0],[-154.0,22.0],[-155.0,22.0],[-155.0,21.0]]]}},{"type":"Feature","properties":{"ss":0.1,"category":"Low","color":"#2e7d32"},"geometry":{"type":"Polygon","coordinates":[[[-161.0,22.0],[-160.0,22.0],[-160.0,23.0],[-161.0,23.0],[-161.0,22.0]]]}},{"type":"Feature","properties":{"ss":0.17,"category":"Low","color":"#2e7d32"},"geometry":{"type":"Polygon","coordinates":[[[-160.0,22.0],[-159.0,22.0],[-159.0,23.0],[-160.0,23.0],[-160.0,22.0]]]}},{"type":"Feature","properties":{"ss":0.25,"category":"Moderate","color":"#b58900"},"geometry":{"type":"Polygon","coordinates":[[[-159.0,22.0],[-158.0,22.0],[-158.0,23.0],[-159.0,23.0],[-159.0,22.0]]]}},{"type":"Feature","properties":{"ss":0.31,"category":"Moderate","color":"#b58900"},"geometry":{"type":"Polygon","coordinates":[[[-158.0,22.0],[-157.0,22.0],[-157.0,23.0],[-158.0,23.0],[-158.0,22.0]]]}},{"type":"Feature","properties":{"ss":0.18,"category":"Low","color":"#2e7d32"},"geometry":{"type":"Polygon","coordinates":[[[-157.0,22.0],[-156.0,22.0],[-156.0,23.0],[-157.0,23.0],[-157.0,22.0]]]}},{"type":"Feature","properties":{"ss":0.12,"category":"Low","color":"#2e7d32"},"geometry":{"type":"Polygon","coordinates":[[[-156.0,22.0],[-155.0,22.0],[-155.0,23.0],[-156.0,23.0],[-156.0,22.0]]]}},{"type":"Feature","properties":{"ss":0.06,"category":"Low","color":"#2e7d32"},"geometry":{"type":"Polygon","coordinates":[[[-155.0,22.0],[-154.0,22.0],[-154.0,23.0],[-155.0,23.0],[-155.0,22.0]]]}}]}